[{"model": "DG.region", "pk": "ALMATY", "fields": {"name": "\u0433.A\u043b\u043c\u0430\u0442\u044b"}}, {"model": "DG.region", "pk": "KZ-AKM", "fields": {"name": "\u0410\u043a\u043c\u043e\u043b\u0438\u043d\u0441\u043a\u0430\u044f \u043e\u0431\u043b\u0430\u0441\u0442\u044c"}}, {"model": "DG.region", "pk": "KZ-AKT", "fields": {"name": "\u0410\u043a\u0442\u044e\u0431\u0438\u043d\u0441\u043a\u0430\u044f \u043e\u0431\u043b\u0430\u0441\u0442\u044c"}}, {"model": "DG.region", "pk": "KZ-ALM", "fields": {"name": "\u0410\u043b\u043c\u0430\u0442\u0438\u043d\u0441\u043a\u0430\u044f \u043e\u0431\u043b\u0430\u0441\u0442\u044c"}}, {"model": "DG.region", "pk": "KZ-ATY", "fields": {"name": "\u0410\u0442\u044b\u0440\u0430\u0443\u0441\u043a\u0430\u044f \u043e\u0431\u043b\u0430\u0441\u0442\u044c"}}, {"model": "DG.region", "pk": "KZ-KAR", "fields": {"name": "\u041a\u0430\u0440\u0430\u0433\u0430\u043d\u0434\u0438\u043d\u0441\u043a\u0430\u044f \u043e\u0431\u043b\u0430\u0441\u0442\u044c"}}, {"model": "DG.region", "pk": "KZ-KUS", "fields": {"name": "\u041a\u043e\u0441\u0442\u0430\u043d\u0430\u0439\u0441\u043a\u0430\u044f \u043e\u0431\u043b\u0430\u0441\u0442\u044c"}}, {"model": "DG.region", "pk": "KZ-KZY", "fields": {"name": "\u041a\u044b\u0437\u044b\u043b\u043e\u0440\u0434\u0438\u043d\u0441\u043a\u0430\u044f \u043e\u0431\u043b\u0430\u0441\u0442\u044c"}}, {"model": "DG.region", "pk": "KZ-MAN", "fields": {"name": "\u041c\u0430\u043d\u0433\u0438\u0441\u0442\u0430\u0443\u0441\u043a\u0430\u044f \u043e\u0431\u043b\u0430\u0441\u0442\u044c"}}, {"model": "DG.region", "pk": "KZ-PAV", "fields": {"name": "\u041f\u0430\u0432\u043b\u043e\u0434\u0430\u0440\u0441\u043a\u0430\u044f \u043e\u0431\u043b\u0430\u0441\u0442\u044c"}}, {"model": "DG.region", "pk": "KZ-SEV", "fields": {"name": "\u0421\u0435\u0432\u0435\u0440\u043e-\u043a\u0430\u0437\u0430\u0445\u0441\u0442\u0430\u043d\u0441\u043a\u0430\u044f \u043e\u0431\u043b\u0430\u0441\u0442\u044c"}}, {"model": "DG.region", "pk": "KZ-VOS", "fields": {"name": "\u0412\u043e\u0441\u0442\u043e\u0447\u043d\u043e-\u043a\u0430\u0437\u0430\u0445\u0441\u0442\u0430\u043d\u0441\u043a\u0430\u044f \u043e\u0431\u043b\u0430\u0441\u0442\u044c"}}, {"model": "DG.region", "pk": "KZ-YUZ", "fields": {"name": "\u042e\u0436\u043d\u043e-\u043a\u0430\u0437\u0430\u0445\u0441\u0442\u0430\u043d\u0441\u043a\u0430\u044f \u043e\u0431\u043b\u0430\u0441\u0442\u044c"}}, {"model": "DG.region", "pk": "KZ-ZAP", "fields": {"name": "\u0417\u0430\u043f\u0430\u0434\u043d\u0430\u044f-\u043a\u0430\u0437\u0430\u0445\u0441\u0442\u0430\u043d\u0441\u043a\u0430\u044f \u043e\u0431\u043b\u0430\u0441\u0442\u044c"}}, {"model": "DG.region", "pk": "KZ-ZHA", "fields": {"name": "\u0416\u0430\u043c\u0431\u044b\u043b\u0441\u043a\u0430\u044f \u043e\u0431\u043b\u0430\u0441\u0442\u044c"}}, {"model": "DG.hydropost", "pk": 11001, "fields": {"nameEn": "r. Kara Ertis - pos. Boran", "name": "\u0420.\u041a\u0430\u0440\u0430 \u0415\u0440\u0442\u0438\u0441 \u2013 \u043f\u043e\u0441. \u0411\u043e\u0440\u0430\u043d", "lat": "48.00", "lon": "85.22", "region": "KZ-VOS"}}, {"model": "DG.hydropost", "pk": 11002, "fields": {"nameEn": "r. Ertis - s. Bazhenovo", "name": "\u0420. \u0415\u0440\u0442\u0438\u0441\u2013 \u0441. \u0411\u0430\u0436\u0435\u043d\u043e\u0432\u043e", "lat": "50.39", "lon": "81.00", "region": "KZ-VOS"}}, {"model": "DG.hydropost", "pk": 11003, "fields": {"nameEn": "r. Kara ertis - 7.5 km nizhe granicy s KNR", "name": "\u0420. \u041a\u0430\u0440\u0430 \u0415\u0440\u0442\u0438\u0441 \u2013 7.5 \u043a\u043c \u043d\u0438\u0436\u0435 \u0433\u0440\u0430\u043d\u0438\u0446\u044b \u0441 \u041a\u041d\u0420", "lat": "48.02", "lon": "85.43", "region": "KZ-VOS"}}, {"model": "DG.hydropost", "pk": 11019, "fields": {"nameEn": "r. Ertis - s. Abylaikit", "name": "\u0420. \u0415\u0440\u0442\u0438\u0441 \u2013 \u0441. \u0410\u0431\u043b\u0430\u0439\u043a\u0438\u0442", "lat": "49.89", "lon": "82.70", "region": "KZ-VOS"}}, {"model": "DG.hydropost", "pk": 11025, "fields": {"nameEn": "r. Ertis - g. Semey", "name": "\u0420. \u0415\u0440\u0442\u0438\u0441 \u2013 \u0433. \u0421\u0435\u043c\u0435\u0439", "lat": "50.38", "lon": "80.26", "region": "KZ-VOS"}}, {"model": "DG.hydropost", "pk": 11027, "fields": {"nameEn": "r. Ertis - s. Semiyarka", "name": "\u0420. \u0415\u0440\u0442\u0438\u0441 \u2013 \u0441. \u0421\u0435\u043c\u0438\u044f\u0440\u043a\u0430", "lat": "50.89", "lon": "78.31", "region": "KZ-VOS"}}, {"model": "DG.hydropost", "pk": 11037, "fields": {"nameEn": "r. Yertis \u2013 g. Pavlodar (zaton)", "name": "\u0420. \u0415\u0440\u0442\u0438\u0441 \u2013 \u0433. \u041f\u0430\u0432\u043b\u043e\u0434\u0430\u0440 (\u0437\u0430\u0442\u043e\u043d)", "lat": "52.26", "lon": "76.94", "region": "KZ-PAV"}}, {"model": "DG.hydropost", "pk": 11040, "fields": {"nameEn": "r. Ertis p. Ertis", "name": "\u0420. \u0415\u0440\u0442\u0438\u0441 \u2013 \u043f. \u0415\u0440\u0442\u0438\u0441", "lat": "53.34", "lon": "75.47", "region": "KZ-PAV"}}, {"model": "DG.hydropost", "pk": 11041, "fields": {"nameEn": "r.Yertis \u2013 s. Priirtyshskoye", "name": "\u0420.\u0415\u0440\u0442\u0438\u0441 \u2013 \u0441. \u041f\u0440\u0438\u0438\u0440\u0442\u044b\u0448\u0441\u043a\u043e\u0435", "lat": "53.70", "lon": "75.08", "region": "KZ-PAV"}}, {"model": "DG.hydropost", "pk": 11063, "fields": {"nameEn": "r. Bas-Terekty - s. Moyilldy", "name": "\u0420. \u0411\u0430\u0441-\u0422\u0435\u0440\u0435\u043a\u0442\u044b \u2013 \u0441. \u041c\u043e\u0439\u044b\u043b\u0434\u044b (\u041d\u0438\u043a\u043e\u043b\u0430\u0435\u0432\u043a\u0430)", "lat": "48.43", "lon": "85.84", "region": "KZ-VOS"}}, {"model": "DG.hydropost", "pk": 11068, "fields": {"nameEn": "r. Kalzhyr - s. Kalzhyr", "name": "\u0420. \u041a\u0430\u043b\u0436\u044b\u0440 \u2013 \u0441.\u041a\u0430\u043b\u0436\u044b\u0440", "lat": "48.13", "lon": "85.20", "region": "KZ-VOS"}}, {"model": "DG.hydropost", "pk": 11077, "fields": {"nameEn": "r. Kandysu - s. Saryolen", "name": "\u0420. \u041a\u0430\u043d\u0434\u044b\u0441\u0443 \u2013 \u0441.\u0421\u0430\u0440\u044b\u043e\u043b\u0435\u043d", "lat": "47.28", "lon": "84.11", "region": "KZ-VOS"}}, {"model": "DG.hydropost", "pk": 11094, "fields": {"nameEn": "r. Ulken Bukon - s. Dzhumba", "name": "\u0420. \u0423\u043b\u043a\u0435\u043d \u0411\u0443\u043a\u043e\u043d\u044c \u2013 \u0441. \u0414\u0436\u0443\u043c\u0431\u0430", "lat": "49.01", "lon": "82.79", "region": "KZ-VOS"}}, {"model": "DG.hydropost", "pk": 11108, "fields": {"nameEn": "r. Kurshim - s. Voznesenka", "name": "\u0420. \u041a\u0443\u0440\u0448\u0438\u043c \u2013 \u0441. \u0412\u043e\u0437\u043d\u0435\u0441\u0435\u043d\u043a\u0430", "lat": "48.61", "lon": "83.87", "region": "KZ-VOS"}}, {"model": "DG.hydropost", "pk": 11117, "fields": {"nameEn": "r. Naryn - s. Ulken Natyn", "name": "\u0420. \u041d\u0430\u0440\u044b\u043d\u2013 \u0441.\u0423\u043b\u044c\u043a\u0435\u043d \u041d\u0430\u0440\u044b\u043d", "lat": "49.21", "lon": "84.52", "region": "KZ-VOS"}}, {"model": "DG.hydropost", "pk": 11124, "fields": {"nameEn": "r. Buktyrma - s. Berel", "name": "\u0420.\u0411\u0443\u043a\u0442\u044b\u0440\u043c\u0430 \u2013 \u0441. \u0411\u0435\u0440\u0435\u043b\u044c  ", "lat": "49.37", "lon": "86.45", "region": "KZ-VOS"}}, {"model": "DG.hydropost", "pk": 11126, "fields": {"nameEn": "r. Buktyrma - s. Barlyk", "name": "\u0420. \u0411\u0443\u043a\u0442\u044b\u0440\u043c\u0430 \u2013\u0441.\u0411\u0430\u0440\u043b\u044b\u043a", "lat": "49.33", "lon": "85.17", "region": "KZ-VOS"}}, {"model": "DG.hydropost", "pk": 11129, "fields": {"nameEn": "r. Buktyrma s. Lesnaya pristan", "name": "\u0420. \u0411\u0443\u043a\u0442\u044b\u0440\u043c\u0430 \u2013 \u0441. \u041b\u0435\u0441\u043d\u0430\u044f \u043f\u0440\u0438\u0441\u0442\u0430\u043d\u044c", "lat": "49.83", "lon": "84.33", "region": "KZ-VOS"}}, {"model": "DG.hydropost", "pk": 11143, "fields": {"nameEn": "r. Aksu - s Aksu", "name": "\u0420.\u0410\u043a\u0441\u0443 \u2013 \u0441. \u0410\u043a\u0441\u0443  ", "lat": "49.38", "lon": "85.41", "region": "KZ-VOS"}}, {"model": "DG.hydropost", "pk": 11146, "fields": {"nameEn": "r. Lev.Berezovka - s. Sredigornoye", "name": "\u0420. \u041b\u0435\u0432. \u0411\u0435\u0440\u0435\u0437\u043e\u0432\u043a\u0430 \u2013 \u0441. \u0421\u0440\u0435\u0434\u0438\u0433\u043e\u0440\u043d\u043e\u0435", "lat": "49.51", "lon": "84.39", "region": "KZ-VOS"}}, {"model": "DG.hydropost", "pk": 11147, "fields": {"nameEn": "r. Turgysyn - s. Kutiha", "name": "\u0420. \u0422\u0443\u0440\u0433\u044b\u0441\u044b\u043d \u2013 \u0441. \u041a\u0443\u0442\u0438\u0445\u0430", "lat": "49.89", "lon": "84.08", "region": "KZ-VOS"}}, {"model": "DG.hydropost", "pk": 11160, "fields": {"nameEn": "r. Sibe - s. Algabas", "name": "\u0420. \u0421\u0438\u0431\u0435 \u2013 \u0441. \u0410\u043b\u0433\u0430\u0431\u0430\u0441 ", "lat": "49.39", "lon": "82.56", "region": "KZ-VOS"}}, {"model": "DG.hydropost", "pk": 11163, "fields": {"nameEn": "r. Ulbi - g. Ridder", "name": "\u0420. \u0423\u043b\u044c\u0431\u0438 \u2013 \u0433.\u0420\u0438\u0434\u0434\u0435\u0440", "lat": "50.28", "lon": "83.38", "region": "KZ-VOS"}}, {"model": "DG.hydropost", "pk": 11164, "fields": {"nameEn": "r. Ulbi - s. Ulbi Perevalochnaya", "name": "\u0420. \u0423\u043b\u044c\u0431\u0438 \u2013 \u0441. \u0423\u043b\u044c\u0431\u0438 \u041f\u0435\u0440\u0435\u0432\u0430\u043b\u043e\u0447\u043d\u0430\u044f", "lat": "50.01", "lon": "82.84", "region": "KZ-VOS"}}, {"model": "DG.hydropost", "pk": 11170, "fields": {"nameEn": "r. Glubochanka - s. Belokamenka", "name": "\u0420. \u0413\u043b\u0443\u0431\u043e\u0447\u0430\u043d\u043a\u0430 - \u0441.\u0411\u0435\u043b\u043e\u043a\u0430\u043c\u0435\u043d\u043a\u0430", "lat": "50.19", "lon": "82.58", "region": "KZ-VOS"}}, {"model": "DG.hydropost", "pk": 11187, "fields": {"nameEn": "r. Dresvyanka - s. Otradnoe", "name": "\u0420.\u0414\u0440\u0435\u0441\u0432\u044f\u043d\u043a\u0430 \u2013 \u0441. \u041e\u0442\u0440\u0430\u0434\u043d\u043e\u0435  ", "lat": "49.99", "lon": "82.26", "region": "KZ-VOS"}}, {"model": "DG.hydropost", "pk": 11188, "fields": {"nameEn": "r. Krasnoyarka - s. Predgornoye", "name": "\u0420. \u041a\u0440\u0430\u0441\u043d\u043e\u044f\u0440\u043a\u0430 \u2013 \u0441. \u041f\u0440\u0435\u0434\u0433\u043e\u0440\u043d\u043e\u0435", "lat": "50.25", "lon": "82.24", "region": "KZ-VOS"}}, {"model": "DG.hydropost", "pk": 11189, "fields": {"nameEn": "r. Kyshy Ulbi - s. Gornaya Ulbinka", "name": "\u0420.\u041a\u0438\u0448\u0438 \u0423\u043b\u044c\u0431\u0438- \u0441.\u0413\u043e\u0440\u043d\u0430\u044f \u0423\u043b\u044c\u0431\u0438\u043d\u043a\u0430", "lat": "49.99", "lon": "82.92", "region": "KZ-VOS"}}, {"model": "DG.hydropost", "pk": 11203, "fields": {"nameEn": "r. Oba - s. Verhuba (vmesto s. Karakozha)", "name": "\u0420. \u041e\u0431\u0430 \u2013 \u0441.\u0412\u0435\u0440\u0445\u0443\u0431\u0430 (\u0432\u043c\u0435\u0441\u0442\u043e \u0441.\u041a\u0430\u0440\u0430\u043a\u043e\u0436\u0430)", "lat": "50.49", "lon": "82.41", "region": "KZ-VOS"}}, {"model": "DG.hydropost", "pk": 11207, "fields": {"nameEn": "r. Oba - s. Shemonaiha", "name": "\u0420. \u041e\u0431\u0430 \u2013 \u0441. \u0428\u0435\u043c\u043e\u043d\u0430\u0438\u0445\u0430", "lat": "50.61", "lon": "81.88", "region": "KZ-VOS"}}, {"model": "DG.hydropost", "pk": 11233, "fields": {"nameEn": "r. Shar - aul Kentarlau (s. Nikolaevka)", "name": "\u0420. \u0428\u0430\u0440 \u2013 \u0430\u0443\u043b \u041a\u0435\u043d\u0442\u0430\u0440\u043b\u0430\u0443 (\u0441.\u041d\u0438\u043a\u043e\u043b\u0430\u0435\u0432\u043a\u0430) ", "lat": "49.16", "lon": "81.97", "region": "KZ-VOS"}}, {"model": "DG.hydropost", "pk": 11242, "fields": {"nameEn": "r. Silety - Novomarkovka", "name": "\u0420. \u0421\u0438\u043b\u0435\u0442\u044b \u2013 \u041d\u043e\u0432\u043e\u043c\u0430\u0440\u043a\u043e\u0432\u043a\u0430", "lat": "51.74", "lon": "72.31", "region": "KZ-AKM"}}, {"model": "DG.hydropost", "pk": 11253, "fields": {"nameEn": "r. Silety - Bestogay", "name": "\u0420. \u0421\u0438\u043b\u0435\u0442\u044b \u2013 \u0411\u0435\u0441\u0442\u043e\u0433\u0430\u0439", "lat": "52.00", "lon": "72.69", "region": "KZ-AKM"}}, {"model": "DG.hydropost", "pk": 11272, "fields": {"nameEn": "r. Silety - s. Prirechnoe", "name": "\u0420. \u0421\u0438\u043b\u0435\u0442\u044b \u2013 \u0441. \u041f\u0440\u0438\u0440\u0435\u0447\u043d\u043e\u0435 ", "lat": "51.54", "lon": "71.94", "region": "KZ-AKM"}}, {"model": "DG.hydropost", "pk": 11275, "fields": {"nameEn": "r. Silety - svh. Izobilnoe", "name": "\u0420. \u0421\u0438\u043b\u0435\u0442\u044b \u2013 \u0441\u0432\u0445. \u0418\u0437\u043e\u0431\u0438\u043b\u044c\u043d\u043e\u0435", "lat": "52.49", "lon": "73.29", "region": "KZ-AKM"}}, {"model": "DG.hydropost", "pk": 11291, "fields": {"nameEn": "r. Shagalaly - s. Pavlovka", "name": "\u0420. \u0428\u0430\u0433\u0430\u043b\u0430\u043b\u044b \u2013 \u0441. \u041f\u0430\u0432\u043b\u043e\u0432\u043a\u0430", "lat": "53.10", "lon": "69.01", "region": "KZ-AKM"}}, {"model": "DG.hydropost", "pk": 11293, "fields": {"nameEn": "r. Shagalaly \u2013 s. Severnoye", "name": "\u0428\u0430\u0493\u0430\u043b\u0430\u043b\u044b \u04e9. \u2013 \u0421\u0435\u0432\u0435\u0440\u043d\u043e\u0435 \u0441.", "lat": "53.69", "lon": "69.62", "region": "KZ-SEV"}}, {"model": "DG.hydropost", "pk": 11395, "fields": {"nameEn": "r. Yesil \u2013 s. Priishimskoye", "name": "\u0440. \u0415\u0441\u0438\u043b\u044c \u2013 \u0441. \u041f\u0440\u0438\u0438\u0448\u0438\u043c\u0441\u043a\u043e\u0435                    ", "lat": "50.62", "lon": "73.03", "region": "KZ-KAR"}}, {"model": "DG.hydropost", "pk": 11397, "fields": {"nameEn": "r. Esil - s. Turgen", "name": "\u0420. \u0415\u0441\u0438\u043b\u044c\u2013 \u0441. \u0422\u0443\u0440\u0433\u0435\u043d(\u0441.\u0422\u0443\u0440\u0433\u0435\u043d\u0435\u0432\u043a\u0430)", "lat": "50.75", "lon": "72.34", "region": "KZ-AKM"}}, {"model": "DG.hydropost", "pk": 11398, "fields": {"nameEn": "r. Esil - g. Astana", "name": "\u0440. \u0415\u0441\u0438\u043b\u044c - \u0433.\u0410\u0441\u0442\u0430\u043d\u0430", "lat": "51.16", "lon": "71.41", "region": "KZ-AKM"}}, {"model": "DG.hydropost", "pk": 11402, "fields": {"nameEn": "r. Esil - s. Derzhavinsk", "name": "\u0420.\u0415\u0441\u0438\u043b\u044c \u2013 \u0441. \u0414\u0435\u0440\u0436\u0430\u0432\u0438\u043d\u0441\u043a", "lat": "51.09", "lon": "66.32", "region": "KZ-AKM"}}, {"model": "DG.hydropost", "pk": 11404, "fields": {"nameEn": "r. Esil - s. Kamennyi karier", "name": "\u0420.\u0415\u0441\u0438\u043b\u044c \u2013 \u0441. \u041a\u0430\u043c\u0435\u043d\u043d\u044b\u0439 \u043a\u0430\u0440\u044c\u0435\u0440 ", "lat": "52.02", "lon": "66.27", "region": "KZ-AKM"}}, {"model": "DG.hydropost", "pk": 11405, "fields": {"nameEn": "r. Esil - s. Toxan bi", "name": "\u0440. \u0415\u0441\u0438\u043b\u044c \u2013 \u0441. \u0422\u043e\u043a\u0441\u0430\u043d \u0431\u0438", "lat": "52.96", "lon": "66.63", "region": "KZ-SEV"}}, {"model": "DG.hydropost", "pk": 11407, "fields": {"nameEn": "vdkhr. Sergeyevskoye (r. Yesil) \u2013 g. Sergeyevka (GES)", "name": "\u0432\u0434\u0445\u0440. \u0421\u0435\u0440\u0433\u0435\u0435\u0432\u0441\u043a\u043e\u0435 (\u0440. \u0415\u0441\u0438\u043b\u044c) \u2013 \u0433. \u0421\u0435\u0440\u0433\u0435\u0435\u0432\u043a\u0430 (\u0413\u042d\u0421)", "lat": "53.87", "lon": "67.43", "region": "KZ-SEV"}}, {"model": "DG.hydropost", "pk": 11408, "fields": {"nameEn": "r. Yesil \u2013 g. Sergeyevka", "name": "\u0440. \u0415\u0441\u0438\u043b\u044c \u2013 \u0433. \u0421\u0435\u0440\u0433\u0435\u0435\u0432\u043a\u0430 ", "lat": "52.88", "lon": "67.43", "region": "KZ-SEV"}}, {"model": "DG.hydropost", "pk": 11409, "fields": {"nameEn": "r. Yesil \u2013 vyshe s. Pokrovka ", "name": "\u0440. \u0415\u0441\u0438\u043b\u044c \u2013 \u0432\u044b\u0448\u0435 \u0441. \u041f\u043e\u043a\u0440\u043e\u0432\u043a\u0430 \u0441.", "lat": "54.29", "lon": "68.33", "region": "KZ-SEV"}}, {"model": "DG.hydropost", "pk": 11410, "fields": {"nameEn": "r. Yesil \u2013 g.Petropavlovsk", "name": "\u0440. \u0415\u0441\u0438\u043b\u044c \u2013 \u041f\u0435\u0442\u0440\u043e\u043f\u0430\u0432\u043b", "lat": "54.91", "lon": "69.13", "region": "KZ-SEV"}}, {"model": "DG.hydropost", "pk": 11411, "fields": {"nameEn": "r. Esil - s. Telman", "name": "\u0440. \u0415\u0441\u0438\u043b\u044c - \u0441.\u0422\u0435\u043b\u044c\u043c\u0430\u043d", "lat": "51.10", "lon": "71.49", "region": "KZ-AKM"}}, {"model": "DG.hydropost", "pk": 11412, "fields": {"nameEn": "r. Esil - pesh.most Astana", "name": "\u0440.\u0415\u0441\u0438\u043b\u044c - \u043f\u0435\u0448.\u043c\u043e\u0441\u0442 \u0410\u0441\u0442\u0430\u043d\u0430", "lat": "51.16", "lon": "71.42", "region": "KZ-AKM"}}, {"model": "DG.hydropost", "pk": 11413, "fields": {"nameEn": "r. Esil - s. Koktal", "name": "\u0440. \u0415\u0441\u0438\u043b\u044c \u2013 \u0441. \u041a\u043e\u043a\u0442\u0430\u043b", "lat": "51.17", "lon": "71.34", "region": "KZ-AKM"}}, {"model": "DG.hydropost", "pk": 11414, "fields": {"nameEn": "r. Esil - p. Novoishimka", "name": "\u0420.\u0415\u0441\u0438\u043b\u044c \u2013 \u043f.\u041d\u043e\u0432\u043e\u0438\u0448\u0438\u043c\u043a\u0430", "lat": "51.31", "lon": "70.73", "region": "KZ-AKM"}}, {"model": "DG.hydropost", "pk": 11421, "fields": {"nameEn": "r. Moyildy -s. Nikolaevka", "name": "\u0420. \u041c\u043e\u0439\u044b\u043b\u0434\u044b \u2013 \u0441. \u041d\u0438\u043a\u043e\u043b\u0430\u0435\u0432\u043a\u0430 ", "lat": "51.09", "lon": "72.44", "region": "KZ-AKM"}}, {"model": "DG.hydropost", "pk": 11424, "fields": {"nameEn": "r. Kalkutan - s. Kalkutan", "name": "\u0420. \u041a\u0430\u043b\u043a\u0443\u0442\u0430\u043d \u2013 \u0441. \u041a\u0430\u043b\u043a\u0443\u0442\u0430\u043d", "lat": "51.79", "lon": "69.46", "region": "KZ-AKM"}}, {"model": "DG.hydropost", "pk": 11432, "fields": {"nameEn": "r. Zhabai - s. Balkashino", "name": "\u0420. \u0416\u0430\u0431\u0430\u0439 \u2013 \u0441. \u0411\u0430\u043b\u043a\u0430\u0448\u0438\u043d\u043e", "lat": "52.54", "lon": "68.79", "region": "KZ-AKM"}}, {"model": "DG.hydropost", "pk": 11433, "fields": {"nameEn": "r. Zhabai - g. Atbasar", "name": "\u0420. \u0416\u0430\u0431\u0430\u0439 \u2013 \u0433. \u0410\u0442\u0431\u0430\u0441\u0430\u0440", "lat": "51.80", "lon": "68.37", "region": "KZ-AKM"}}, {"model": "DG.hydropost", "pk": 11453, "fields": {"nameEn": "r. Babakbyrlyk - s. Gusakovka ", "name": "\u0411\u0430\u0431\u044b\u049b\u0431\u04b1\u0440\u043b\u044b\u049b \u04e9. \u2013 \u0413\u0443\u0441\u0430\u043a\u043e\u0432\u043a\u0430 \u0441.", "lat": "52.74", "lon": "67.66", "region": "KZ-SEV"}}, {"model": "DG.hydropost", "pk": 11461, "fields": {"nameEn": "r. Imanburlyk \u2013 s. Sokolovka", "name": "\u0440. \u0418\u043c\u0430\u043d\u0431\u0443\u0440\u043b\u044b\u043a \u2013 \u0441. \u0421\u043e\u043a\u043e\u043b\u043e\u0432\u043a\u0430", "lat": "53.66", "lon": "67.41", "region": "KZ-SEV"}}, {"model": "DG.hydropost", "pk": 11468, "fields": {"nameEn": "r. Akkanburlyk- s. Kovylnoye (s. Privolnoye)", "name": "\u0440. \u0410\u043a\u043a\u0430\u043d\u0431\u0443\u0440\u043b\u044b\u043a- \u0441. \u041a\u043e\u0432\u044b\u043b\u044c\u043d\u043e\u0435 (\u0441. \u041f\u0440\u0438\u0432\u043e\u043b\u044c\u043d\u043e\u0435)", "lat": "52.58", "lon": "67.68", "region": "KZ-SEV"}}, {"model": "DG.hydropost", "pk": 11469, "fields": {"nameEn": "r. Akkanbyrlyk - s.Vozvyshenka ", "name": "\u0410\u049b\u049b\u0430\u043d\u0431\u04b1\u0440\u043b\u044b\u049b \u04e9. - \u0412\u043e\u0437\u0432\u044b\u0448\u0435\u043d\u043a\u0430 \u0441.", "lat": "52.79", "lon": "66.76", "region": "KZ-SEV"}}, {"model": "DG.hydropost", "pk": 11644, "fields": {"nameEn": "r. Esil - s. Volgodonovka", "name": "\u0420. \u0415\u0441\u0438\u043b\u044c \u2013 \u0441. \u0412\u043e\u043b\u0433\u043e\u0434\u043e\u043d\u043e\u0432\u043a\u0430", "lat": "51.02", "lon": "71.98", "region": "KZ-AKM"}}, {"model": "DG.hydropost", "pk": 11645, "fields": {"nameEn": "r. Yesil \u2013 s. Novonikolskoye", "name": "\u0440. \u0415\u0441\u0438\u043b\u044c \u2013 \u0441. \u041d\u043e\u0432\u043e\u043d\u0438\u043a\u043e\u043b\u044c\u0441\u043a\u043e\u0435 ", "lat": "54.52", "lon": "68.72", "region": "KZ-SEV"}}, {"model": "DG.hydropost", "pk": 11646, "fields": {"nameEn": "r. Yesil - s. Dolmatovo", "name": "\u0440. \u0415\u0441\u0438\u043b\u044c - \u0414\u043e\u043b\u043c\u0430\u0442\u043e\u0432\u043e \u0441.", "lat": "55.32", "lon": "69.45", "region": "KZ-SEV"}}, {"model": "DG.hydropost", "pk": 11661, "fields": {"nameEn": "r. Abylaykit - s. Samsonovka", "name": "\u0420. \u0410\u0431\u044b\u043b\u0430\u0439\u043a\u0438\u0442 \u2013 \u0441. \u0421\u0430\u043c\u0441\u043e\u043d\u043e\u0432\u043a\u0430", "lat": "49.83", "lon": "82.65", "region": "KZ-VOS"}}, {"model": "DG.hydropost", "pk": 11663, "fields": {"nameEn": "r. Yertis \u2013 svkh. Bobrovskiy (a.Zhanabet)", "name": "\u0420. \u0415\u0440\u0442\u0438\u0441 \u2013  \u0441\u0432\u0445. \u0411\u043e\u0431\u0440\u043e\u0432\u0441\u043a\u0438\u0439 (\u0430.\u0416\u0430\u043d\u0430\u0431\u0435\u0442)", "lat": "50.26", "lon": "75.60", "region": "KZ-PAV"}}, {"model": "DG.hydropost", "pk": 11667, "fields": {"nameEn": "r. Ertis - Pavlodar (most)", "name": "\u0440. \u0415\u0440\u0442\u0438\u0441 \u2013 \u0433. \u041f\u0430\u0432\u043b\u043e\u0434\u0430\u0440 (\u043c\u043e\u0441\u0442) ", "lat": "52.33", "lon": "76.88", "region": "KZ-PAV"}}, {"model": "DG.hydropost", "pk": 11668, "fields": {"nameEn": "r. Ulanka - p. Gerasimovka", "name": "\u0420. \u0423\u043b\u0430\u043d\u043a\u0430 \u2013 \u043f. \u0413\u0435\u0440\u0430\u0441\u0438\u043c\u043e\u0432\u043a\u0430", "lat": "49.98", "lon": "82.42", "region": "KZ-VOS"}}, {"model": "DG.hydropost", "pk": 11900, "fields": {"nameEn": "oz. Markakol - s. Uranhay", "name": "\u041e\u0437. \u041c\u0430\u0440\u043a\u0430\u043a\u043e\u043b\u044c \u2013 \u0441. \u0423\u0440\u0430\u043d\u0445\u0430\u0439", "lat": "48.79", "lon": "86.02", "region": "KZ-VOS"}}, {"model": "DG.hydropost", "pk": 11915, "fields": {"nameEn": "Seletinskoe vdhr. - s. Silety", "name": "\u0421\u0435\u043b\u0435\u0442\u0438\u043d\u0441\u043a\u043e\u0435 \u0432\u0434\u0445\u0440. - \u0441. \u0421\u0438\u043b\u0435\u0442\u044b", "lat": "52.15", "lon": "72.74", "region": "KZ-AKM"}}, {"model": "DG.hydropost", "pk": 11916, "fields": {"nameEn": "Alken Tarangul Kuli - s. Korneevka ", "name": "\u04ae\u043b\u043a\u0435\u043d \u0422\u0430\u0440\u0430\u043d\u0433\u0443\u043b \u043a\u04e9\u043b\u0456 \u2013 \u041a\u043e\u0440\u043d\u0435\u0435\u0432\u043a\u0430 \u0441.", "lat": "54.00", "lon": "68.40", "region": "KZ-SEV"}}, {"model": "DG.hydropost", "pk": 11919, "fields": {"nameEn": "Oz. Kopa - g. Kokshetau", "name": "\u041e\u0437. \u041a\u043e\u043f\u0430 \u2013 \u0433. \u041a\u043e\u043a\u0448\u0435\u0442\u0430\u0443", "lat": "53.30", "lon": "69.38", "region": "KZ-AKM"}}, {"model": "DG.hydropost", "pk": 11935, "fields": {"nameEn": "Oz.Sabyndykol - p. Bayanaul", "name": "\u041e\u0437.\u0421\u0430\u0431\u044b\u043d\u0434\u044b\u043a\u043e\u043b\u044c \u2013 \u043f. \u0411\u0430\u044f\u043d\u0430\u0443\u044b\u043b  ", "lat": "50.78", "lon": "75.71", "region": "KZ-PAV"}}, {"model": "DG.hydropost", "pk": 12001, "fields": {"nameEn": "r.Tobol \u2013 s.Akkarga", "name": "\u0440.\u0422\u043e\u0431\u043e\u043b \u2013 \u0441.\u0410\u043a\u043a\u0430\u0440\u0433\u0430", "lat": "51.44", "lon": "61.33", "region": "KZ-KUS"}}, {"model": "DG.hydropost", "pk": 12002, "fields": {"nameEn": "r.Tobol \u2013 s. Grishenka", "name": "\u0440.\u0422\u043e\u0431\u043e\u043b \u2013 \u0441. \u0413\u0440\u0438\u0448\u0435\u043d\u043a\u0430", "lat": "52.39", "lon": "61.70", "region": "KZ-KUS"}}, {"model": "DG.hydropost", "pk": 12008, "fields": {"nameEn": "r.Tobol \u2013 g. Kostanay", "name": "\u0440.\u0422\u043e\u0431\u043e\u043b \u2013 \u0433. \u041a\u043e\u0441\u0442\u0430\u043d\u0430\u0439", "lat": "53.21", "lon": "63.65", "region": "KZ-KUS"}}, {"model": "DG.hydropost", "pk": 12009, "fields": {"nameEn": "r.Tobol \u2013 s.Milyutinka", "name": "\u0440.\u0422\u043e\u0431\u043e\u043b \u2013 \u0441.\u041c\u0438\u043b\u044e\u0442\u0438\u043d\u043a\u0430", "lat": "54.10", "lon": "63.84", "region": "KZ-KUS"}}, {"model": "DG.hydropost", "pk": 12031, "fields": {"nameEn": "r.Zhelkuar \u2013 p.Chaykovskoye", "name": "\u0440.\u0416\u0435\u043b\u043a\u0443\u0430\u0440 \u2013 \u043f.\u0427\u0430\u0439\u043a\u043e\u0432\u0441\u043a\u043e\u0435", "lat": "52.37", "lon": "61.11", "region": "KZ-KUS"}}, {"model": "DG.hydropost", "pk": 12032, "fields": {"nameEn": "r.Ayat \u2013 s.Varvarinka", "name": "\u0440.\u0410\u044f\u0442 \u2013 \u0441.\u0412\u0430\u0440\u0432\u0430\u0440\u0438\u043d\u043a\u0430", "lat": "53.78", "lon": "62.18", "region": "KZ-KUS"}}, {"model": "DG.hydropost", "pk": 12072, "fields": {"nameEn": "r.Togyzak \u2013 st. Toguzak", "name": "\u0440.\u0422\u043e\u0433\u044b\u0437\u0430\u043a \u2013 \u0441\u0442. \u0422\u043e\u0433\u0443\u0437\u0430\u043a", "lat": "53.78", "lon": "62.18", "region": "KZ-KUS"}}, {"model": "DG.hydropost", "pk": 12075, "fields": {"nameEn": "r. Ubagan - s.Aksuat", "name": "\u0440.\u0423\u0431\u0430\u0433\u0430\u043d \u2013 \u0441.\u0410\u043a\u0441\u0443\u0430\u0442", "lat": "53.92", "lon": "64.75", "region": "KZ-KUS"}}, {"model": "DG.hydropost", "pk": 12564, "fields": {"nameEn": "r.Kamystyayat \u2013 p.Sverdlovka", "name": "\u0440.\u041a\u0430\u043c\u044b\u0441\u0442\u044b\u0430\u044f\u0442 \u2013 \u043f.\u0421\u0432\u0435\u0440\u0434\u043b\u043e\u0432\u043a\u0430", "lat": "52.90", "lon": "61.53", "region": "KZ-KUS"}}, {"model": "DG.hydropost", "pk": 12701, "fields": {"nameEn": "r.Uy \u2013 s.Uyskoye", "name": "\u0440.\u0423\u0439 \u2013 \u0441.\u0423\u0439\u0441\u043a\u043e\u0435", "lat": "54.20", "lon": "63.46", "region": "KZ-KUS"}}, {"model": "DG.hydropost", "pk": 13002, "fields": {"nameEn": "r.Torgay \u2013 peski Tusum", "name": "\u0440.\u0422\u043e\u0440\u0433\u0430\u0439 \u2013 \u043f\u0435\u0441\u043a\u0438 \u0422\u0443\u0441\u0443\u043c", "lat": "49.20", "lon": "63.12", "region": "KZ-KUS"}}, {"model": "DG.hydropost", "pk": 13005, "fields": {"nameEn": "r.Karaturgay - p. Urpek", "name": "\u0440.\u041a\u0430\u0440\u0430\u0442\u0443\u0440\u0433\u0430\u0439 \u2013 \u043f.\u0423\u0440\u043f\u0435\u043a", "lat": "50.10", "lon": "65.32", "region": "KZ-KUS"}}, {"model": "DG.hydropost", "pk": 13035, "fields": {"nameEn": "r. Irgiz - s.Karabutak", "name": "\u0420.\u0418\u0440\u0433\u0438\u0437-\u0441.\u041a\u0430\u0440\u0430\u0431\u0443\u0442\u0430\u043a", "lat": "49.94", "lon": "60.13", "region": "KZ-AKT"}}, {"model": "DG.hydropost", "pk": 13038, "fields": {"nameEn": "r. Irgiz - s. Shenbertal", "name": "\u0420.\u0418\u0440\u0433\u0438\u0437-\u0441.\u0428\u0435\u043d\u0431\u0435\u0440\u0442\u0430\u043b", "lat": "48.71", "lon": "60.30", "region": "KZ-AKT"}}, {"model": "DG.hydropost", "pk": 13048, "fields": {"nameEn": "r. Kara \u2013Kengir \u2013s. Malshybay", "name": "\u0440. \u041a\u0430\u0440\u0430 \u2013\u041a\u0435\u043d\u0433\u0438\u0440 \u2013\u0441. \u041c\u0430\u043b\u0448\u044b\u0431\u0430\u0439             ", "lat": "48.38", "lon": "67.85", "region": "KZ-KAR"}}, {"model": "DG.hydropost", "pk": 13061, "fields": {"nameEn": "r. Nura \u2013 s. Besoba", "name": "\u0440. \u041d\u0443\u0440\u0430 \u2013 \u0441. \u0411\u0435\u0441\u043e\u0431\u0430", "lat": "49.34", "lon": "74.47", "region": "KZ-KAR"}}, {"model": "DG.hydropost", "pk": 13064, "fields": {"nameEn": "r. Nura \u2013 s. Sheshenkara", "name": "\u0440. \u041d\u0443\u0440\u0430 \u2013 \u0441. \u0428\u0435\u0448\u0435\u043d\u043a\u0430\u0440\u0430", "lat": "49.97", "lon": "74.05", "region": "KZ-KAR"}}, {"model": "DG.hydropost", "pk": 13066, "fields": {"nameEn": "r. Nura - zh.d.st. Balykty", "name": "\u0440. \u041d\u0443\u0440\u0430 \u2013 \u0436.\u0434.\u0441\u0442. \u0411\u0430\u043b\u044b\u043a\u0442\u044b", "lat": "50.00", "lon": "73.23", "region": "KZ-KAR"}}, {"model": "DG.hydropost", "pk": 13076, "fields": {"nameEn": "r. Nura - s.R.Koshkarbaeva", "name": "\u0420. \u041d\u0443\u0440\u0430 \u2013 \u0441. \u0420.\u041a\u043e\u0448\u043a\u0430\u0440\u0431\u0430\u0435\u0432\u0430 (\u0441. \u0420\u043e\u043c\u0430\u043d\u043e\u0432\u043a\u0430)", "lat": "50.83", "lon": "71.34", "region": "KZ-AKM"}}, {"model": "DG.hydropost", "pk": 13077, "fields": {"nameEn": "r. Nura - s. Korgalzhyn", "name": "\u0440. \u041d\u0443\u0440\u0430 - \u0441.\u041a\u043e\u0440\u0433\u0430\u043b\u0436\u044b\u043d ", "lat": "50.59", "lon": "70.01", "region": "KZ-AKM"}}, {"model": "DG.hydropost", "pk": 13090, "fields": {"nameEn": "r. Sherubaynura \u2013 s. Shopan", "name": "\u0440. \u0428\u0435\u0440\u0443\u0431\u0430\u0439\u043d\u0443\u0440\u0430 \u2013 \u0441. \u0428\u043e\u043f\u0430\u043d                   ", "lat": "49.11", "lon": "73.47", "region": "KZ-KAR"}}, {"model": "DG.hydropost", "pk": 13091, "fields": {"nameEn": "r. Sherubainur - rzd. Karamuryn", "name": "r. Sherubainur - rzd. Karamuryn       ", "lat": "49.24", "lon": "72.97", "region": "KZ-KAR"}}, {"model": "DG.hydropost", "pk": 13105, "fields": {"nameEn": "r. Taldy \u2013 s. Novostroyka", "name": "\u0440. \u0422\u0430\u043b\u0434\u044b \u2013 \u0441. \u041d\u043e\u0432\u043e\u0441\u0442\u0440\u043e\u0439\u043a\u0430                     ", "lat": "49.10", "lon": "75.86", "region": "KZ-KAR"}}, {"model": "DG.hydropost", "pk": 13115, "fields": {"nameEn": "r.Sarysu - rzd. 189 km.", "name": "\u0440.\u0421\u0430\u0440\u044b\u0441\u0443 \u2013 \u0440\u0437\u0434. 189 \u043a\u043c.", "lat": "48.55", "lon": "70.44", "region": "KZ-KAR"}}, {"model": "DG.hydropost", "pk": 13116, "fields": {"nameEn": "r. Sarysu - zh.d.st. Kyzylzhar", "name": "\u0440. \u0421\u0430\u0440\u044b\u0441\u0443 \u2013 \u0436.\u0434.\u0441\u0442. \u041a\u044b\u0437\u044b\u043b\u0436\u0430\u0440               ", "lat": "48.31", "lon": "69.63", "region": "KZ-KAR"}}, {"model": "DG.hydropost", "pk": 13128, "fields": {"nameEn": "r. Zhaman \u2013Sarysu p. Atasu", "name": "\u0440. \u0416\u0430\u043c\u0430\u043d \u2013\u0421\u0430\u0440\u044b\u0441\u0443 \u043f. \u0410\u0442\u0430\u0441\u0443                   ", "lat": "48.67", "lon": "71.64", "region": "KZ-KAR"}}, {"model": "DG.hydropost", "pk": 13142, "fields": {"nameEn": "r. Sokur - Karazhar", "name": "\u0440. \u0421\u043e\u043a\u0443\u0440 \u2013 \u043f. \u041a\u0430\u0440\u0430\u0436\u0430\u0440                             ", "lat": "49.87", "lon": "72.57", "region": "KZ-KAR"}}, {"model": "DG.hydropost", "pk": 13148, "fields": {"nameEn": "r. Ulken \u2013 Kundyzdy \u2013 s. Kiyevka", "name": "\u0440. \u0423\u043b\u044c\u043a\u0435\u043d \u2013 \u041a\u0443\u043d\u0434\u044b\u0437\u0434\u044b \u2013 \u0441. \u041a\u0438\u0435\u0432\u043a\u0430        ", "lat": "50.25", "lon": "71.57", "region": "KZ-KAR"}}, {"model": "DG.hydropost", "pk": 13190, "fields": {"nameEn": "r. Nura \u2013 s. Akmeshit", "name": "\u0440. \u041d\u0443\u0440\u0430 \u2013 \u0441. \u0410\u043a\u043c\u0435\u0448\u0438\u0442                             ", "lat": "49.75", "lon": "71.72", "region": "KZ-KAR"}}, {"model": "DG.hydropost", "pk": 13198, "fields": {"nameEn": "r. Zhaman \u2013Kon \u2013 p. Barshino", "name": "\u0440. \u0416\u0430\u043c\u0430\u043d \u2013\u041a\u043e\u043d \u2013 \u043f. \u0411\u0430\u0440\u0448\u0438\u043d\u043e                  ", "lat": "49.67", "lon": "69.55", "region": "KZ-KAR"}}, {"model": "DG.hydropost", "pk": 13201, "fields": {"nameEn": "r.Damdy \u2013 s.Damdy", "name": "\u0440.\u0414\u0430\u043c\u0434\u044b \u2013 \u0441.\u0414\u0430\u043c\u0434\u044b", "lat": "51.20", "lon": "65.03", "region": "KZ-KUS"}}, {"model": "DG.hydropost", "pk": 13221, "fields": {"nameEn": "r.Saratorgay \u2013 p.Yekidin", "name": "\u0440.\u0421\u0430\u0440\u0430\u0442\u043e\u0440\u0433\u0430\u0439 \u2013 \u043f.\u0415\u043a\u0438\u0434\u0438\u043d", "lat": "49.50", "lon": "66.13", "region": "KZ-KUS"}}, {"model": "DG.hydropost", "pk": 13901, "fields": {"nameEn": "Oz. Sultankeldy - s. Karazhar", "name": "\u041e\u0437. \u0421\u0443\u043b\u0442\u0430\u043d\u043a\u0435\u043b\u044c\u0434\u044b \u2013 \u0441. \u041a\u0430\u0440\u0430\u0436\u0430\u0440", "lat": "50.48", "lon": "69.54", "region": "KZ-AKM"}}, {"model": "DG.hydropost", "pk": 13902, "fields": {"nameEn": "oz. Shalkar - g. Shalkar", "name": "\u041e\u0437.\u0428\u0430\u043b\u043a\u0430\u0440-\u0433.\u0428\u0430\u043b\u043a\u0430\u0440", "lat": "47.83", "lon": "59.61", "region": "KZ-AKT"}}, {"model": "DG.hydropost", "pk": 14001, "fields": {"nameEn": "r Ile - 8.5 km nizhe granicy s KNR (ONOPKO)", "name": "\u0420. \u0418\u043b\u0435 \u2013 8.5 \u043a\u043c \u043d\u0438\u0436\u0435 \u0433\u0440\u0430\u043d\u0438\u0446\u044b \u0441 \u041a\u041d\u0420 (\u041e\u043d\u043e\u043f\u043a\u043e)", "lat": "45.79", "lon": "80.47", "region": "ALMATY"}}, {"model": "DG.hydropost", "pk": 14002, "fields": {"nameEn": "r. Ile - pr.Dobyn", "name": "\u0440.  \u0418\u043b\u0435 \u2013 \u043f\u0440. \u0414\u043e\u0431\u044b\u043d", "lat": "43.76", "lon": "80.23", "region": "ALMATY"}}, {"model": "DG.hydropost", "pk": 14004, "fields": {"nameEn": "r. Ile - 164 km vyshe Kapchagaiskoy GES", "name": "\u0420. \u0418\u043b\u0435 \u2013 164 \u043a\u043c \u0432\u044b\u0448\u0435 \u041a\u0430\u043f\u0447\u0430\u0433\u0430\u0439\u0441\u043a\u043e\u0439 \u0413\u042d\u0421", "lat": "43.84", "lon": "79.01", "region": "ALMATY"}}, {"model": "DG.hydropost", "pk": 14011, "fields": {"nameEn": "r. Ile - uroch. Kapchagai", "name": "\u0420. \u0418\u043b\u0435 -  \u0443\u0440\u043e\u0447. \u041a\u0430\u043f\u0447\u0430\u0433\u0430\u0439", "lat": "44.13", "lon": "76.98", "region": "ALMATY"}}, {"model": "DG.hydropost", "pk": 14014, "fields": {"nameEn": "r. Ile- s. Ushzharma", "name": "\u0420. \u0418\u043b\u0435-  \u0441. \u0423\u0448\u0436\u0430\u0440\u043c\u0430", "lat": "44.96", "lon": "75.80", "region": "ALMATY"}}, {"model": "DG.hydropost", "pk": 14016, "fields": {"nameEn": "r. Ile - 1 km nizhe otvetvleniya ruk. Zhideli", "name": "\u0420. \u0418\u043b\u0435 \u20131 \u043a\u043c \u043d\u0438\u0436\u0435 \u043e\u0442\u0432\u0435\u0442\u0432\u043b\u0435\u043d\u0438\u044f \u0440\u0443\u043a. \u0416\u0438\u0434\u0435\u043b\u0438", "lat": "45.07", "lon": "75.41", "region": "ALMATY"}}, {"model": "DG.hydropost", "pk": 14017, "fields": {"nameEn": "r. Ile - aul Zhideli", "name": "\u0420. \u0418\u043b\u0435 \u2013 \u0430\u0443\u043b \u0416\u0438\u0434\u0435\u043b\u0438", "lat": "45.43", "lon": "79.33", "region": "ALMATY"}}, {"model": "DG.hydropost", "pk": 14022, "fields": {"nameEn": "r. Tekes - s. Tekes", "name": "\u0420.\u0422\u0435\u043a\u0435\u0441 \u2013 \u0441.\u0422\u0435\u043a\u0435\u0441", "lat": "42.84", "lon": "80.06", "region": "ALMATY"}}, {"model": "DG.hydropost", "pk": 14033, "fields": {"nameEn": "r. Bayankol - s. Bayankol", "name": "\u0420. \u0411\u0430\u044f\u043d\u043a\u043e\u043b \u2013\u0441. \u0411\u0430\u044f\u043d\u043a\u043e\u043b", "lat": "42.60", "lon": "80.00", "region": "ALMATY"}}, {"model": "DG.hydropost", "pk": 14043, "fields": {"nameEn": "r. Korgas - v 18 km vyshe s. Baskunshy", "name": "\u0440. \u041a\u043e\u0440\u0433\u0430\u0441-\u0432 18\u043a\u043c \u0432\u044b\u0448\u0435 \u0441. \u0411\u0430\u0441\u043a\u0443\u043d\u0448\u044b  ", "lat": "44.44", "lon": "80.36", "region": "KZ-ALM"}}, {"model": "DG.hydropost", "pk": 14072, "fields": {"nameEn": "r. Osek - 1.7 over vpad. V r. Kishi Osek", "name": "\u0440. \u041e\u0441\u0435\u043a \u2013 1.7 \u043a\u043c \u0432\u044b\u0448\u0435 \u0432\u043f\u0430\u0434. \u0432 \u0440. \u041a\u0438\u0448\u0438 \u041e\u0441\u0435\u043a", "lat": "44.47", "lon": "79.83", "region": "KZ-ALM"}}, {"model": "DG.hydropost", "pk": 14078, "fields": {"nameEn": "r. Kishi Osek - 0.2 vyshe sl. S r. Osek", "name": "\u0440. \u041a\u0438\u0448\u0438 \u041e\u0441\u0435\u043a \u2013 \u0432 0.2 \u043a\u043c \u0432\u044b\u0448\u0435 \u0441\u043b. \u0441 \u0440. \u041e\u0441\u0435\u043a ", "lat": "44.46", "lon": "79.82", "region": "KZ-ALM"}}, {"model": "DG.hydropost", "pk": 14118, "fields": {"nameEn": "r. Sharyn - uroch. Sarytogai", "name": "\u0420. \u0428\u0430\u0440\u044b\u043d \u2013 \u0443\u0440\u043e\u0447. \u0421\u0430\u0440\u044b\u0442\u043e\u0433\u0430\u0439", "lat": "43.50", "lon": "79.21", "region": "ALMATY"}}, {"model": "DG.hydropost", "pk": 14136, "fields": {"nameEn": "r. Karkara - u vyhoda iz gor", "name": "\u0420. \u041a\u0430\u0440\u043a\u0430\u0440\u0430 \u2013 \u0443 \u0432\u044b\u0445\u043e\u0434\u0430 \u0438\u0437 \u0433\u043e\u0440", "lat": "42.76", "lon": "79.17", "region": "ALMATY"}}, {"model": "DG.hydropost", "pk": 14142, "fields": {"nameEn": "r. Temirlik - s. Temirlik", "name": "\u0420. \u0422\u0435\u043c\u0438\u0440\u043b\u0438\u043a \u2013 \u0441.\u0422\u0435\u043c\u0438\u0440\u043b\u0438\u043a", "lat": "43.30", "lon": "79.20", "region": "ALMATY"}}, {"model": "DG.hydropost", "pk": 14159, "fields": {"nameEn": "r. Shilik - vyshe vdhr. Bartogai", "name": "\u0420. \u0428\u0438\u043b\u0438\u043a \u2013 \u0432\u044b\u0448\u0435 \u0432\u0434\u0445\u0440. \u0411\u0430\u0440\u0442\u043e\u0433\u0430\u0439", "lat": "43.32", "lon": "78.52", "region": "ALMATY"}}, {"model": "DG.hydropost", "pk": 14160, "fields": {"nameEn": "r. Shilik - s.Malybai", "name": "\u0420. \u0428\u0438\u043b\u0438\u043a \u2013 \u0441. \u041c\u0430\u043b\u044b\u0431\u0430\u0439", "lat": "43.44", "lon": "78.41", "region": "ALMATY"}}, {"model": "DG.hydropost", "pk": 14187, "fields": {"nameEn": "r. Turgen - s. Tauturgen", "name": "\u0420. \u0422\u0443\u0440\u0433\u0435\u043d \u2013 \u0441. \u0422\u0430\u0443\u0442\u0443\u0440\u0433\u0435\u043d", "lat": "43.34", "lon": "77.62", "region": "ALMATY"}}, {"model": "DG.hydropost", "pk": 14198, "fields": {"nameEn": "r. Esik - g. Esik", "name": "\u0420. \u0415\u0441\u0438\u043a \u2013 \u0433. \u0415\u0441\u0438\u043a", "lat": "43.30", "lon": "77.50", "region": "ALMATY"}}, {"model": "DG.hydropost", "pk": 14200, "fields": {"nameEn": "r. Talgar - g. Talgar", "name": "\u0420. \u0422\u0430\u043b\u0433\u0430\u0440 \u2013 \u0433. \u0422\u0430\u043b\u0433\u0430\u0440", "lat": "43.25", "lon": "77.22", "region": "ALMATY"}}, {"model": "DG.hydropost", "pk": 14218, "fields": {"nameEn": "r. Kaskelen - g. Kaskelen", "name": "\u0420. \u041a\u0430\u0441\u043a\u0435\u043b\u0435\u043d \u2013 \u0433. \u041a\u0430\u0441\u043a\u0435\u043b\u0435\u043d", "lat": "43.13", "lon": "76.61", "region": "ALMATY"}}, {"model": "DG.hydropost", "pk": 14223, "fields": {"nameEn": "r. kaskelen - ustye", "name": "\u0420.\u041a\u0430\u0441\u043a\u0435\u043b\u0435\u043d - \u0443\u0441\u0442\u044c\u0435", "lat": "43.72", "lon": "77.07", "region": "ALMATY"}}, {"model": "DG.hydropost", "pk": 14239, "fields": {"nameEn": "r. ul. Almaty - v 1.1 km vyshe oz. Ulken Almaty", "name": "\u0420. \u0423\u043b. \u0410\u043b\u043c\u0430\u0442\u044b \u2013 \u0432 1.1 \u043a\u043c \u0432\u044b\u0448\u0435 \u043e\u0437.\u0423\u043b\u044c\u043a.\u0410\u043b\u043c.", "lat": "43.04", "lon": "76.99", "region": "ALMATY"}}, {"model": "DG.hydropost", "pk": 14242, "fields": {"nameEn": "r. Ulken Almaty - v 2 km vyshe utya r. Prohodnoy", "name": "\u0420. \u0423\u043b. \u0410\u043b\u043c.\u2013\u0432 2 \u043a\u043c \u0432\u044b\u0448\u0435 \u0443\u0441\u0442\u044c\u044f \u0440. \u041f\u0440\u043e\u0445\u043e\u0434\u043d\u043e\u0439", "lat": "43.11", "lon": "76.92", "region": "ALMATY"}}, {"model": "DG.hydropost", "pk": 14250, "fields": {"nameEn": "r. Kumbel - ustye", "name": "\u0420. \u041a\u0443\u043c\u0431\u0435\u043b\u044c \u2013 \u0443\u0441\u0442\u044c\u0435", "lat": "43.08", "lon": "76.99", "region": "ALMATY"}}, {"model": "DG.hydropost", "pk": 14252, "fields": {"nameEn": "r. Prohodnaya - ", "name": "\u0420. \u041f\u0440\u043e\u0445\u043e\u0434\u043d\u0430\u044f \u2013 \u0443\u0441\u0442\u044c\u0435", "lat": "43.11", "lon": "76.91", "region": "ALMATY"}}, {"model": "DG.hydropost", "pk": 14253, "fields": {"nameEn": "ruch. Teresbutak - ustye", "name": "\u0420\u0443\u0447. \u0422\u0435\u0440\u0435\u0441\u0431\u0443\u0442\u0430\u043a \u2013 \u0443\u0441\u0442\u044c\u0435", "lat": "43.12", "lon": "76.92", "region": "ALMATY"}}, {"model": "DG.hydropost", "pk": 14254, "fields": {"nameEn": "r. Kyshy Almaty - MC Mynzhylky", "name": "\u0420. \u041a\u0438\u0448\u0438 \u0410\u043b\u043c\u0430\u0442\u044b \u2013 \u041c\u0421 \u041c\u044b\u043d\u0436\u0438\u043b\u043a\u0438", "lat": "43.09", "lon": "77.08", "region": "ALMATY"}}, {"model": "DG.hydropost", "pk": 14255, "fields": {"nameEn": "r. Kyshy Almaty - alpbaza Tuyuksu", "name": "\u0420. \u041a\u0438\u0448\u0438 \u0410\u043b\u043c\u0430\u0442\u044b \u2013 \u0430\u043b\u044c\u043f\u0431\u0430\u0437\u0430  \u00ab\u0422\u0443\u044e\u043a\u0441\u0443\u00bb", "lat": "43.11", "lon": "77.08", "region": "ALMATY"}}, {"model": "DG.hydropost", "pk": 14257, "fields": {"nameEn": "r. Kyshy Almaty - nizhe ustya r. Sarysai", "name": "\u0420. \u041a\u0438\u0448\u0438 \u0410\u043b\u043c\u0430\u0442\u044b \u2013 \u043d\u0438\u0436\u0435 \u0443\u0441\u0442\u044c\u044f \u0440.\u0421\u0430\u0440\u044b\u0441\u0430\u0439", "lat": "43.14", "lon": "77.07", "region": "ALMATY"}}, {"model": "DG.hydropost", "pk": 14260, "fields": {"nameEn": "r. Kyshy Almaty - Medeo", "name": "\u0420. \u041a\u0438\u0448\u0438 \u0410\u043b\u043c\u0430\u0442\u044b \u2013  \u041c\u0435\u0434\u0435\u0443", "lat": "43.17", "lon": "77.04", "region": "ALMATY"}}, {"model": "DG.hydropost", "pk": 14262, "fields": {"nameEn": "r. Kyshy Almaty - g. Almaty", "name": "\u0420. \u041a\u0438\u0448\u0438 \u0410\u043b\u043c\u0430\u0442\u044b \u2013 \u0433. \u0410\u043b\u043c\u0430\u0442\u044b", "lat": "43.19", "lon": "76.99", "region": "ALMATY"}}, {"model": "DG.hydropost", "pk": 14276, "fields": {"nameEn": "r. Batareika - d/o Prosveshenec", "name": "\u0420. \u0411\u0430\u0442\u0430\u0440\u0435\u0439\u043a\u0430 \u2013 \u0434/\u043e \u00ab\u041f\u0440\u043e\u0441\u0432\u0435\u0449\u0435\u043d\u0435\u0446\u00bb", "lat": "43.16", "lon": "77.04", "region": "ALMATY"}}, {"model": "DG.hydropost", "pk": 14277, "fields": {"nameEn": "r. Butak - s. Butak", "name": "\u0420. \u0411\u0443\u0442\u0430\u043a\u2013 \u0441. \u0411\u0443\u0442\u0430\u043a", "lat": "43.18", "lon": "77.05", "region": "ALMATY"}}, {"model": "DG.hydropost", "pk": 14295, "fields": {"nameEn": "r. Kurty - baza klh. imeni Lenina", "name": "\u0420. \u041a\u0443\u0440\u0442\u044b \u2013 \u0431\u0430\u0437\u0430 \u043a\u043b\u0445. \u0438\u043c. \u041b\u0435\u043d\u0438\u043d\u0430", "lat": "43.69", "lon": "76.31", "region": "ALMATY"}}, {"model": "DG.hydropost", "pk": 14324, "fields": {"nameEn": "r. Uzyn Kargaly - p. Fabrichnyi", "name": "\u0420. \u0423\u0437\u044b\u043d \u041a\u0430\u0440\u0433\u0430\u043b\u044b \u2013 \u043f. \u0424\u0430\u0431\u0440\u0438\u0447\u043d\u044b\u0439", "lat": "45.12", "lon": "76.43", "region": "ALMATY"}}, {"model": "DG.hydropost", "pk": 14329, "fields": {"nameEn": "r. Ile. pr. Suminka - 6 km nizhe istoka", "name": "\u0420. \u0418\u043b\u0435. \u043f\u0440. \u0421\u0443\u043c\u0438\u043d\u043a\u0430-6 \u043a\u043c \u043d\u0438\u0436\u0435 \u0438\u0441\u0442\u043e\u043a\u0430", "lat": "45.01", "lon": "75.46", "region": "ALMATY"}}, {"model": "DG.hydropost", "pk": 14332, "fields": {"nameEn": "r. Ile ruk. Zhideli - 16 km nizhe istoka", "name": "\u0420. \u0418\u043b\u0435. \u0440\u0443\u043a. \u0416\u0438\u0434\u0435\u043b\u0438 \u2013 16 \u043a\u043c \u043d\u0438\u0436\u0435 \u0438\u0441\u0442\u043e\u043a\u0430", "lat": "45.11", "lon": "75.31", "region": "ALMATY"}}, {"model": "DG.hydropost", "pk": 14334, "fields": {"nameEn": "r. Ile pr. Ir - ustye", "name": "\u0420. \u0418\u043b\u0435. \u043f\u0440. \u0418\u0440 - \u0443\u0441\u0442\u044c\u0435", "lat": "45.75", "lon": "74.25", "region": "ALMATY"}}, {"model": "DG.hydropost", "pk": 14343, "fields": {"nameEn": "r. Moyynty \u2013 zh.d.st.Kiik", "name": "\u0440. \u041c\u043e\u0439\u044b\u043d\u0442\u044b \u2013 \u0436.\u0434.\u0441\u0442.\u041a\u0438\u0438\u043a                     ", "lat": "47.51", "lon": "72.92", "region": "KZ-KAR"}}, {"model": "DG.hydropost", "pk": 14349, "fields": {"nameEn": "r. Tokyrauyn \u2013 s.Aktogay", "name": "\u0440. \u0422\u043e\u043a\u044b\u0440\u0430\u0443\u044b\u043d \u2013 \u0441.\u0410\u043a\u0442\u043e\u0433\u0430\u0439                      ", "lat": "48.32", "lon": "75.00", "region": "KZ-KAR"}}, {"model": "DG.hydropost", "pk": 14368, "fields": {"nameEn": "r. Ayagoz - s. Tarbagatai", "name": "\u0420. \u0410\u044f\u0433\u043e\u0437 \u2013 \u0441. \u0422\u0430\u0440\u0431\u0430\u0433\u0430\u0442\u0430\u0439", "lat": "47.80", "lon": "81.26", "region": "KZ-VOS"}}, {"model": "DG.hydropost", "pk": 14369, "fields": {"nameEn": "r. Ayagoz - g. Ayagoz", "name": "\u0420. \u0410\u044f\u0433\u043e\u0437 \u2013 \u0433. \u0410\u044f\u0433\u043e\u0437", "lat": "47.94", "lon": "80.45", "region": "KZ-VOS"}}, {"model": "DG.hydropost", "pk": 14382, "fields": {"nameEn": "r. Lepsi - g. Lepsi ", "name": "\u0440. \u041b\u0435\u043f\u0441\u0438 \u2013\u0433. \u041b\u0435\u043f\u0441\u0438 ", "lat": "45.54", "lon": "80.56", "region": "KZ-ALM"}}, {"model": "DG.hydropost", "pk": 14386, "fields": {"nameEn": "r. Lepsi - a. Tolebaev", "name": "\u0440. \u041b\u0435\u043f\u0441\u0438 \u2013\u0430. \u0422\u043e\u043b\u0435\u0431\u0430\u0435\u0432 ", "lat": "46.28", "lon": "78.33", "region": "KZ-ALM"}}, {"model": "DG.hydropost", "pk": 14390, "fields": {"nameEn": "r. Baskan - s. Ekiasha", "name": "\u0440. \u0411\u0430\u0441\u043a\u0430\u043d-\u0441. \u0415\u043a\u0438\u0430\u0448\u0430 ", "lat": "45.40", "lon": "80.11", "region": "KZ-ALM"}}, {"model": "DG.hydropost", "pk": 14397, "fields": {"nameEn": "r. Aksu - zh/d st. Matai", "name": "\u0440. \u0410\u043a\u0441\u0443 \u2013\u0436/\u0434. \u0441\u0442. \u041c\u0430\u0442\u0430\u0439 ", "lat": "45.88", "lon": "78.71", "region": "KZ-ALM"}}, {"model": "DG.hydropost", "pk": 14401, "fields": {"nameEn": "r. Sarykan - g. Sarkand", "name": "\u0440.\u0421\u0430\u0440\u044b\u043a\u0430\u043d \u2013\u0433. \u0421\u0430\u0440\u043a\u0430\u043d\u0434 ", "lat": "45.37", "lon": "79.93", "region": "KZ-ALM"}}, {"model": "DG.hydropost", "pk": 14413, "fields": {"nameEn": "r. Karatal - a. Akzhar", "name": "\u0440. \u041a\u0430\u0440\u0430\u0442\u0430\u043b \u2013\u0430. \u0410\u043a\u0436\u0430\u0440 ", "lat": "46.01", "lon": "77.21", "region": "KZ-ALM"}}, {"model": "DG.hydropost", "pk": 14414, "fields": {"nameEn": "r. Karatal - g. Ushtobe", "name": "\u0440. \u041a\u0430\u0440\u0430\u0442\u0430\u043b-\u0433. \u0423\u0448\u0442\u043e\u0431\u0435 ", "lat": "45.22", "lon": "77.97", "region": "KZ-ALM"}}, {"model": "DG.hydropost", "pk": 14419, "fields": {"nameEn": "r. Karaoi - g. Tekeli", "name": "\u0440. \u041a\u0430\u0440\u0430\u043e\u0439 - \u0433.\u0422\u0435\u043a\u0435\u043b\u0438 ", "lat": "44.86", "lon": "78.77", "region": "KZ-ALM"}}, {"model": "DG.hydropost", "pk": 14421, "fields": {"nameEn": "r. Shyzhyn - g. Tekeli", "name": "\u0440. \u0428\u044b\u0436\u044b\u043d- \u0433.\u0422\u0435\u043a\u0435\u043b\u0438 ", "lat": "44.86", "lon": "78.79", "region": "KZ-ALM"}}, {"model": "DG.hydropost", "pk": 14426, "fields": {"nameEn": "r. Tekeli - g.Tekeli", "name": "\u0440. \u0422\u0435\u043a\u0435\u043b\u0438-\u0433.\u0422\u0435\u043a\u0435\u043b\u0438 ", "lat": "44.86", "lon": "78.79", "region": "KZ-ALM"}}, {"model": "DG.hydropost", "pk": 14446, "fields": {"nameEn": "r. Koksu - s. Koksu", "name": "\u0440. \u041a\u043e\u043a\u0441\u0443-\u0441. \u041a\u043e\u043a\u0441\u0443 ", "lat": "44.67", "lon": "78.93", "region": "KZ-ALM"}}, {"model": "DG.hydropost", "pk": 14452, "fields": {"nameEn": "r. Koktal - s.Araltobe", "name": "\u0440. \u041a\u043e\u043a\u0442\u0430\u043b-\u0441. \u0410\u0440\u0430\u043b\u0442\u043e\u0431\u0435 ", "lat": "44.59", "lon": "79.17", "region": "KZ-ALM"}}, {"model": "DG.hydropost", "pk": 14476, "fields": {"nameEn": "r. Byzhy - a. Karymsak", "name": "\u0440. \u0411\u044b\u0436\u044b \u2013\u0430.\u041a\u0430\u0440\u044b\u043c\u0441\u0430\u043a ", "lat": "44.44", "lon": "78.36", "region": "KZ-ALM"}}, {"model": "DG.hydropost", "pk": 14489, "fields": {"nameEn": "r. Dos - zh/d st. Ainabulak", "name": "\u0440. \u0414\u043e\u0441 \u2013 \u0436/\u0434. \u0441\u0442. \u0410\u0439\u043d\u0430\u0431\u0443\u043b\u0430\u043a ", "lat": "44.63", "lon": "77.99", "region": "KZ-ALM"}}, {"model": "DG.hydropost", "pk": 14506, "fields": {"nameEn": "r. Urdzhar - s. Kazymbet", "name": "\u0420.\u0423\u0440\u0436\u0430\u0440 \u2013 \u0441.\u041a\u0430\u0437\u044b\u043c\u0431\u0435\u0442", "lat": "47.24", "lon": "81.57", "region": "KZ-VOS"}}, {"model": "DG.hydropost", "pk": 14559, "fields": {"nameEn": "r. Emel - pos. Kyzyltu", "name": "\u0420. \u042d\u043c\u0435\u043b\u044c \u2013 \u043f\u043e\u0441. \u041a\u044b\u0437\u044b\u043b\u0442\u0443", "lat": "46.37", "lon": "82.24", "region": "KZ-VOS"}}, {"model": "DG.hydropost", "pk": 14560, "fields": {"nameEn": "r. Tengek - a. Sapak", "name": "\u0440. \u0422\u0435\u043d\u0442\u0435\u043a-\u0430.\u0421\u0430\u043f\u0430\u043a ", "lat": "45.78", "lon": "80.88", "region": "KZ-ALM"}}, {"model": "DG.hydropost", "pk": 14561, "fields": {"nameEn": "r. Tentek - uroch. Tonkeris", "name": "\u0440. \u0422\u0435\u043d\u0442\u0435\u043a \u2013 \u0443\u0440\u043e\u0447. \u0422\u043e\u043d\u043a\u0435\u0440\u0438\u0441 ", "lat": "45.98", "lon": "80.97", "region": "KZ-ALM"}}, {"model": "DG.hydropost", "pk": 14566, "fields": {"nameEn": "r. Shynzhaly - a. Akzhar", "name": "\u0440. \u0428\u044b\u043d\u0436\u0430\u043b\u044b-\u0430. \u0410\u043a\u0436\u0430\u0440 ", "lat": "45.79", "lon": "80.64", "region": "KZ-ALM"}}, {"model": "DG.hydropost", "pk": 14580, "fields": {"nameEn": "r. Koktal - pdh.Plodonoservnyi", "name": "\u0440. \u041a\u043e\u043a\u0442\u0430\u043b \u2013\u043f\u0434\u0445.\u041f\u043b\u043e\u0434\u043e\u043a\u043e\u043d\u0441\u0435\u0440\u0432\u043d\u044b\u0439", "lat": "45.06", "lon": "78.36", "region": "KZ-ALM"}}, {"model": "DG.hydropost", "pk": 14902, "fields": {"nameEn": "Oz. Balkash - s.Mynaral", "name": "\u041e\u0437. \u0411\u0430\u043b\u043a\u0430\u0448 \u2013 \u0441.\u041c\u044b\u043d\u0430\u0440\u0430\u043b", "lat": "45.41", "lon": "73.69", "region": "KZ-ZHA"}}, {"model": "DG.hydropost", "pk": 14903, "fields": {"nameEn": "Oz. Balkhash -zh.d.st. Saryshagan", "name": "\u043e\u0437. \u0411\u0430\u043b\u0445\u0430\u0448 \u2013 \u0436.\u0434.\u0441\u0442. \u0421\u0430\u0440\u044b\u0448\u0430\u0433\u0430\u043d             ", "lat": "46.12", "lon": "73.62", "region": "KZ-KAR"}}, {"model": "DG.hydropost", "pk": 14904, "fields": {"nameEn": "Oz. Balkhash - g.Balkhash", "name": "\u043e\u0437. \u0411\u0430\u043b\u0445\u0430\u0448 \u2013 \u0433. \u0411\u0430\u043b\u0445\u0430\u0448                            ", "lat": "46.83", "lon": "74.97", "region": "KZ-KAR"}}, {"model": "DG.hydropost", "pk": 14911, "fields": {"nameEn": "oz. Balkhash - o. Karakum", "name": "\u043e\u0437. \u0411\u0430\u043b\u0445\u0430\u0448 \u2013 \u043e. \u041a\u0430\u0440\u0430\u043a\u0443\u043c ", "lat": "46.54", "lon": "77.16", "region": "KZ-ALM"}}, {"model": "DG.hydropost", "pk": 14914, "fields": {"nameEn": "oz. Ulken Almaty - na severnom beregu ozera", "name": "\u041e\u0437.\u0423\u043b\u044c\u043a\u0435\u043d \u0410\u043b\u043c\u0430\u0442\u044b \u2013 \u043d\u0430 \u0441\u0435\u0432.\u0431\u0435\u0440\u0435\u0433\u0443 \u043e\u0437\u0435\u0440\u0430", "lat": "43.06", "lon": "76.99", "region": "ALMATY"}}, {"model": "DG.hydropost", "pk": 14915, "fields": {"nameEn": "oz. Sasykkol - a. Sagat", "name": "\u043e\u0437. \u0421\u0430\u0441\u044b\u043a\u043a\u043e\u043b\u044c-\u0430. \u0421\u0430\u0433\u0430\u0442 ", "lat": "46.69", "lon": "80.77", "region": "KZ-ALM"}}, {"model": "DG.hydropost", "pk": 14916, "fields": {"nameEn": "oz. Uyaly", "name": "\u043e\u0437. \u0423\u044f\u043b\u044b \u2013 \u0441. \u0410\u043b\u0430\u043a\u043e\u043b\u044c ", "lat": "46.35", "lon": "81.29", "region": "KZ-ALM"}}, {"model": "DG.hydropost", "pk": 14917, "fields": {"nameEn": "oz. Alakol - s. Akshi", "name": "\u043e\u0437. \u0410\u043b\u0430\u043a\u043e\u043b\u044c  - \u0441. \u0410\u043a\u0448\u044b ", "lat": "45.96", "lon": "81.57", "region": "KZ-ALM"}}, {"model": "DG.hydropost", "pk": 14920, "fields": {"nameEn": "oz. Zhalanashkol - zh/d st. Zhalanashkol", "name": "\u043e\u0437. \u0416\u0430\u043b\u0430\u043d\u0430\u0448\u043a\u043e\u043b\u044c \u2013 \u0436/\u0434.\u0441\u0442. \u0416\u0430\u043b\u0430\u043d\u0430\u0448\u043a\u043e\u043b\u044c ", "lat": "45.59", "lon": "82.17", "region": "KZ-ALM"}}, {"model": "DG.hydropost", "pk": 14921, "fields": {"nameEn": "vdhr. Pachagayskoe - g. Kapchagai", "name": "\u0412\u0434\u0445\u0440. \u041a\u0430\u043f\u0448\u0430\u0433\u0430\u0439\u0441\u043a\u043e\u0435 \u2013 \u0433. \u041a\u0430\u043f\u0448\u0430\u0433\u0430\u0439", "lat": "43.89", "lon": "77.10", "region": "ALMATY"}}, {"model": "DG.hydropost", "pk": 14922, "fields": {"nameEn": "vdhr. Kapchagaiskoe - MC Karashoky ", "name": "\u0412\u0434\u0445\u0440. \u041a\u0430\u043f\u0448\u0430\u0433\u0430\u0439\u0441\u043a\u043e\u0435 \u2013   \u041c\u0421 \u041a\u0430\u0440\u0430\u0448\u043e\u043a\u044b", "lat": "43.84", "lon": "77.85", "region": "ALMATY"}}, {"model": "DG.hydropost", "pk": 15125, "fields": {"nameEn": "r. Shu - s. Tashutkul", "name": "\u0420. \u0428\u0443 \u2013 \u0441. \u0422\u0430\u0448\u0443\u0442\u043a\u0443\u043b\u044c ", "lat": "43.39", "lon": "73.87", "region": "KZ-ZHA"}}, {"model": "DG.hydropost", "pk": 15134, "fields": {"nameEn": "r. Shu (B. Arna) -s. Ulanbel", "name": "\u0420. \u0428\u0443 (\u0411. \u0410\u0440\u043d\u0430) \u2013 \u0441. \u0423\u043b\u0430\u043d\u0431\u0435\u043b\u044c", "lat": "44.83", "lon": "71.14", "region": "KZ-ZHA"}}, {"model": "DG.hydropost", "pk": 15208, "fields": {"nameEn": "r.Sarykau \u2013 (na granitse s. Kyrgyzstanom)", "name": "\u0420.\u0421\u0430\u0440\u044b\u043a\u0430\u0443 \u2013 (\u043d\u0430 \u0433\u0440\u0430\u043d\u0438\u0446\u0435 \u0441 \u041a\u044b\u0440\u0433\u044b\u0437\u0441\u0442\u0430\u043d\u043e\u043c)", "lat": "43.12", "lon": "73.80", "region": "KZ-ZHA"}}, {"model": "DG.hydropost", "pk": 15213, "fields": {"nameEn": "r. Aksu - s. Aksu", "name": "\u0420. \u0410\u043a\u0441\u0443 \u2013 \u0441. \u0410\u043a\u0441\u0443  ", "lat": "43.18", "lon": "74.06", "region": "KZ-ZHA"}}, {"model": "DG.hydropost", "pk": 15220, "fields": {"nameEn": "r. Karabalta \u2013a.Aksu (a. Balasagun)", "name": "\u0440. \u041a\u0430\u0440\u0430\u0431\u0430\u043b\u0442\u0430 \u2013\u0430.\u0410\u043a\u0441\u0443 (\u0430. \u0411\u0430\u043b\u0430\u0441\u0430\u0433\u0443\u043d)", "lat": "43.21", "lon": "74.02", "region": "KZ-ZHA"}}, {"model": "DG.hydropost", "pk": 15223, "fields": {"nameEn": "r. Kuragaty -zh.d.st. Aspara", "name": "\u0420. \u041a\u0443\u0440\u0430\u0433\u0430\u0442\u044b \u2013 \u0436.\u0434.\u0441\u0442. \u0410\u0441\u043f\u0430\u0440\u0430", "lat": "43.38", "lon": "73.60", "region": "KZ-ZHA"}}, {"model": "DG.hydropost", "pk": 15235, "fields": {"nameEn": "r. Merke - zim. Ulbutui", "name": "\u0420. \u041c\u0435\u0440\u043a\u0435 \u2013 \u0437\u0438\u043c. \u0423\u043b\u0431\u0443\u0442\u0443\u0439", "lat": "42.77", "lon": "73.23", "region": "KZ-ZHA"}}, {"model": "DG.hydropost", "pk": 15245, "fields": {"nameEn": "r. Shu (M. Arna) -s. Ulanbel", "name": "\u0420. \u0428\u0443 (\u041c. \u0410\u0440\u043d\u0430) \u2013 \u0441. \u0423\u043b\u0430\u043d\u0431\u0435\u043b\u044c\u0439", "lat": "44.83", "lon": "71.14", "region": "KZ-ZHA"}}, {"model": "DG.hydropost", "pk": 15264, "fields": {"nameEn": "r. Talas \u2013 a. Zhasorken", "name": "\u0440. \u0422\u0430\u043b\u0430\u0441 \u2013 \u0430. \u0416\u0430\u0441\u043e\u0440\u043a\u0435\u043d ", "lat": "42.82", "lon": "71.54", "region": "KZ-ZHA"}}, {"model": "DG.hydropost", "pk": 15266, "fields": {"nameEn": "r. Talas. protoka \u2013 a. Zhasorken", "name": "\u0440. \u0422\u0430\u043b\u0430\u0441. \u043f\u0440\u043e\u0442\u043e\u043a\u0430 \u2013 \u0430. \u0416\u0430\u0441\u043e\u0440\u043a\u0435\u043d", "lat": "42.81", "lon": "71.53", "region": "KZ-ZHA"}}, {"model": "DG.hydropost", "pk": 15309, "fields": {"nameEn": "r. Assa - zh.d.st. Maimak", "name": "\u0420. \u0410\u0441\u0441\u0430 \u2013 \u0436.\u0434. \u0441\u0442. \u041c\u0430\u0439\u043c\u0430\u043a", "lat": "42.68", "lon": "71.21", "region": "KZ-ZHA"}}, {"model": "DG.hydropost", "pk": 15314, "fields": {"nameEn": "r. Ters - s.Nurlykent", "name": "\u0420. \u0422\u0435\u0440\u0441 \u2013 \u0441.\u041d\u0443\u0440\u043b\u044b\u043a\u0435\u043d\u0442", "lat": "42.67", "lon": "70.82", "region": "KZ-ZHA"}}, {"model": "DG.hydropost", "pk": 15324, "fields": {"nameEn": "r. Shokpak \u2013 s. Zhurumbay", "name": "\u0420.\u0428\u043e\u043a\u043f\u0430\u043a \u2013 \u0441.\u0416\u0443\u0440\u0443\u043c\u0431\u0430\u0439", "lat": "42.65", "lon": "70.67", "region": "KZ-ZHA"}}, {"model": "DG.hydropost", "pk": 15342, "fields": {"nameEn": "r. Berikkara \u2013 u vykhoda iz gor", "name": "\u0440. \u0411\u0435\u0440\u0438\u043a\u043a\u0430\u0440\u0430 \u2013 \u0443 \u0432\u044b\u0445\u043e\u0434\u0430 \u0438\u0437 \u0433\u043e\u0440", "lat": "42.92", "lon": "70.64", "region": "KZ-ZHA"}}, {"model": "DG.hydropost", "pk": 15347, "fields": {"nameEn": "r. Tamdy - g. Karatau", "name": "\u0420. \u0422\u0430\u043c\u0434\u044b \u2013 \u0433.\u041a\u0430\u0440\u0430\u0442\u0430\u0443 ", "lat": "43.18", "lon": "70.43", "region": "KZ-ZHA"}}, {"model": "DG.hydropost", "pk": 15368, "fields": {"nameEn": "r. Shu - s. Kainar", "name": "\u0420. \u0428\u0443 \u2013 \u0441. \u041a\u0430\u0439\u043d\u0430\u0440", "lat": "43.29", "lon": "74.18", "region": "KZ-ZHA"}}, {"model": "DG.hydropost", "pk": 15396, "fields": {"nameEn": "r. Talas \u2013 p. Solnechnyy", "name": "\u0420. \u0422\u0430\u043b\u0430\u0441 \u2013 \u043f. \u0421\u043e\u043b\u043d\u0435\u0447\u043d\u044b\u0439", "lat": "42.85", "lon": "71.47", "region": "KZ-ZHA"}}, {"model": "DG.hydropost", "pk": 15900, "fields": {"nameEn": "Vdkhr. Tashutkulskoye \u2013 s. Tashutkul", "name": "\u0412\u0434\u0445\u0440. \u0422\u0430\u0448\u0443\u0442\u043a\u0443\u043b\u044c\u0441\u043a\u043e\u0435 \u2013 \u0441. \u0422\u0430\u0448\u0443\u0442\u043a\u0443\u043b\u044c", "lat": "43.39", "lon": "73.88", "region": "KZ-ZHA"}}, {"model": "DG.hydropost", "pk": 15961, "fields": {"nameEn": "Oz. Biylyukol \u2013 zona otdykha", "name": "\u041e\u0437. \u0411\u0438\u0439\u043b\u044e\u043a\u043e\u043b\u044c \u2013 \u0437\u043e\u043d\u0430 \u043e\u0442\u0434\u044b\u0445\u0430", "lat": "42.99", "lon": "70.69", "region": "KZ-ZHA"}}, {"model": "DG.hydropost", "pk": 16031, "fields": {"nameEn": "r. Syrdarya \u2013 n. b. Shardarinskogo vdkhr.", "name": "\u0440. \u0421\u044b\u0440\u0434\u0430\u0440\u044c\u044f \u2013 \u043d. \u0431. \u0428\u0430\u0440\u0434\u0430\u0440\u0438\u043d\u0441\u043a\u043e\u0433\u043e \u0432\u0434\u0445\u0440.", "lat": "41.27", "lon": "67.95", "region": "KZ-YUZ"}}, {"model": "DG.hydropost", "pk": 16033, "fields": {"nameEn": "r. Syrdarya - aul Bayyrkum", "name": "\u0440. \u0421\u044b\u0440\u0434\u0430\u0440\u044c\u044f \u2013 \u0430\u0443\u043b \u0411\u0430\u0439\u044b\u0440\u043a\u0443\u043c", "lat": "42.14", "lon": "68.14", "region": "KZ-YUZ"}}, {"model": "DG.hydropost", "pk": 16035, "fields": {"nameEn": "r. Syrdarya \u2013 uch. Koktyube", "name": "\u0440. \u0421\u044b\u0440\u0434\u0430\u0440\u044c\u044f \u2013 \u0443\u0447. \u041a\u043e\u043a\u0442\u044e\u0431\u0435", "lat": "43.22", "lon": "67.70", "region": "KZ-KZY"}}, {"model": "DG.hydropost", "pk": 16037, "fields": {"nameEn": "r. Syrdarya \u2013 zh.d. st. Tomenaryk", "name": "\u0440. \u0421\u044b\u0440\u0434\u0430\u0440\u044c\u044f \u2013 \u0436.-\u0434. \u0441\u0442. \u0422\u043e\u043c\u0435\u043d\u0430\u0440\u044b\u043a", "lat": "44.02", "lon": "67.02", "region": "KZ-KZY"}}, {"model": "DG.hydropost", "pk": 16039, "fields": {"nameEn": "r. Syrdarya - raz. Kerkelmes", "name": "\u0440. \u0421\u044b\u0440\u0434\u0430\u0440\u044c\u044f \u2013 \u0440\u0430\u0437. \u041a\u0435\u0440\u043a\u0435\u043b\u043c\u0435\u0441", "lat": "44.63", "lon": "65.91", "region": "KZ-KZY"}}, {"model": "DG.hydropost", "pk": 16042, "fields": {"nameEn": "r. Syrdarya \u2013 zh.d.st Karaozek", "name": "\u0440. \u0421\u044b\u0440\u0434\u0430\u0440\u044c\u044f \u2013 \u0436.-\u0434.\u0441\u0442 \u041a\u0430\u0440\u0430\u043e\u0437\u0435\u043a", "lat": "44.99", "lon": "65.26", "region": "KZ-KZY"}}, {"model": "DG.hydropost", "pk": 16044, "fields": {"nameEn": "r. Syrdarya - pgt. Zhosaly", "name": "\u0440. \u0421\u044b\u0440\u0434\u0430\u0440\u044c\u044f - \u043f\u0433\u0442 \u0416\u043e\u0441\u0430\u043b\u044b", "lat": "45.47", "lon": "64.08", "region": "KZ-KZY"}}, {"model": "DG.hydropost", "pk": 16047, "fields": {"nameEn": "r. Syrdarya \u2013 g. Kazaly", "name": "\u0440. \u0421\u044b\u0440\u0434\u0430\u0440\u044c\u044f \u2013 \u0433. \u041a\u0430\u0437\u0430\u043b\u044b", "lat": "45.74", "lon": "62.13", "region": "KZ-KZY"}}, {"model": "DG.hydropost", "pk": 16052, "fields": {"nameEn": "r. Syrdarya. protok Karaozek  zh.d. st. Karaozek", "name": "\u0440. \u0421\u044b\u0440\u0434\u0430\u0440\u044c\u044f. \u043f\u0440\u043e\u0442\u043e\u043a \u041a\u0430\u0440\u0430\u043e\u0437\u0435\u043a \u2013\u0436.-\u0434. \u0441\u0442. \u041a\u0430\u0440\u0430\u043e\u0437\u0435\u043a ", "lat": "45.00", "lon": "65.26", "region": "KZ-KZY"}}, {"model": "DG.hydropost", "pk": 16053, "fields": {"nameEn": "R. Syrdarya. Karaozek protok -pgt. Zhosaly ", "name": "\u0440. \u0421\u044b\u0440\u0434\u0430\u0440\u044c\u044f. \u043f\u0440\u043e\u0442\u043e\u043a \u041a\u0430\u0440\u0430\u043e\u0437\u0435\u043a \u2013 \u043f\u0433\u0442 \u0416\u043e\u0441\u0430\u043b\u044b", "lat": "45.48", "lon": "64.10", "region": "KZ-KZY"}}, {"model": "DG.hydropost", "pk": 16246, "fields": {"nameEn": "r. Toktash \u2013 s. Zhaugash Batyr", "name": "\u0420. \u0422\u043e\u043a\u0442\u0430\u0448 \u2013 \u0441. \u0416\u0430\u0443\u0433\u0430\u0448 \u0411\u0430\u0442\u044b\u0440", "lat": "43.13", "lon": "73.88", "region": "KZ-ZHA"}}, {"model": "DG.hydropost", "pk": 16307, "fields": {"nameEn": "r. Keles - aul Kazygurt", "name": "\u0440. \u041a\u0435\u043b\u0435\u0441 \u2013 \u0430\u0443\u043b \u041a\u0430\u0437\u044b\u0433\u0443\u0440\u0442", "lat": "41.74", "lon": "69.40", "region": "KZ-YUZ"}}, {"model": "DG.hydropost", "pk": 16317, "fields": {"nameEn": "r. Keles - ustye", "name": "\u0440. \u041a\u0435\u043b\u0435\u0441 - \u0443\u0441\u0442\u044c\u0435", "lat": "41.02", "lon": "68.62", "region": "KZ-YUZ"}}, {"model": "DG.hydropost", "pk": 16319, "fields": {"nameEn": "r. Arys - aul Zhaskeshu", "name": "\u0440. \u0410\u0440\u044b\u0441\u044c \u2013 \u0430\u0443\u043b \u0416\u0430\u0441\u043a\u0435\u0448\u0443", "lat": "42.55", "lon": "70.17", "region": "KZ-YUZ"}}, {"model": "DG.hydropost", "pk": 16326, "fields": {"nameEn": "r. Arys \u2013 zh.d.-st. Arys", "name": "\u0440. \u0410\u0440\u044b\u0441\u044c \u2013 \u0436.\u0434.-\u0441\u0442. \u0410\u0440\u044b\u0441\u044c", "lat": "42.45", "lon": "68.85", "region": "KZ-YUZ"}}, {"model": "DG.hydropost", "pk": 16327, "fields": {"nameEn": "r. Arys - aul Shaulder", "name": "\u0440. \u0410\u0440\u044b\u0441\u044c \u2013 \u0430\u0443\u043b \u0428\u0430\u0443\u043b\u044c\u0434\u0435\u0440", "lat": "42.78", "lon": "68.35", "region": "KZ-YUZ"}}, {"model": "DG.hydropost", "pk": 16328, "fields": {"nameEn": "r. Zhabaglysu -aul  Zhabagly ", "name": "\u0440. \u0416\u0430\u0431\u0430\u0433\u043b\u044b\u0441\u0443 \u2013 \u0430\u0443\u043b \u0416\u0430\u0431\u0430\u0433\u043b\u044b", "lat": "42.42", "lon": "70.54", "region": "KZ-YUZ"}}, {"model": "DG.hydropost", "pk": 16340, "fields": {"nameEn": "r. Mashat - aul Kershetas", "name": "\u0440. \u041c\u0430\u0448\u0430\u0442 \u2013 \u0430\u0443\u043b \u041a\u0435\u0440\u0448\u0435\u0442\u0430\u0441", "lat": "42.50", "lon": "69.96", "region": "KZ-YUZ"}}, {"model": "DG.hydropost", "pk": 16350, "fields": {"nameEn": "r. Aksu - aul  Sarkyram", "name": "\u0440. \u0410\u043a\u0441\u0443 \u2013 \u0430\u0443\u043b \u0421\u0430\u0440\u043a\u044b\u0440\u0430\u043c\u0430", "lat": "42.36", "lon": "70.00", "region": "KZ-YUZ"}}, {"model": "DG.hydropost", "pk": 16353, "fields": {"nameEn": "r. Aksu \u2013 aul Kolkent", "name": "\u0440. \u0410\u043a\u0441\u0443 \u2013 \u0430\u0443\u043b \u041a\u043e\u043b\u043a\u0435\u043d\u0442", "lat": "42.55", "lon": "69.65", "region": "KZ-YUZ"}}, {"model": "DG.hydropost", "pk": 16358, "fields": {"nameEn": "r. Borolday \u2013 s.Vasilyevka", "name": "\u0440.\u0411\u043e\u0440\u043e\u043b\u0434\u0430\u0439 \u2013 \u0441.\u0412\u0430\u0441\u0438\u043b\u044c\u0435\u0432\u043a\u0430 ", "lat": "42.76", "lon": "70.27", "region": "KZ-ZHA"}}, {"model": "DG.hydropost", "pk": 16363, "fields": {"nameEn": "r. Boralday \u2013 aul Boraldai", "name": "\u0440. \u0411\u043e\u0440\u043e\u043b\u0434\u0430\u0439 \u2013\u0430\u0443\u043b \u0411\u043e\u0440\u043e\u043b\u0434\u0430\u0439", "lat": "42.79", "lon": "69.68", "region": "KZ-YUZ"}}, {"model": "DG.hydropost", "pk": 16374, "fields": {"nameEn": "r. Badam - aul Kyzylzhar", "name": "\u0440. \u0411\u0430\u0434\u0430\u043c \u2013 \u0430\u0443\u043b \u041a\u044b\u0437\u044b\u043b\u0436\u0430\u0440 ", "lat": "42.34", "lon": "69.49", "region": "KZ-YUZ"}}, {"model": "DG.hydropost", "pk": 16375, "fields": {"nameEn": "r. Badam -aul  Karaspan", "name": "\u0440. \u0411\u0430\u0434\u0430\u043c \u2013 \u0430\u0443\u043b \u041a\u0430\u0440\u0430\u0441\u043f\u0430\u043d", "lat": "42.49", "lon": "69.09", "region": "KZ-YUZ"}}, {"model": "DG.hydropost", "pk": 16390, "fields": {"nameEn": "r. Sairamsu - aul Tasaryk", "name": "\u0440. \u0421\u0430\u0439\u0440\u0430\u043c\u0441\u0443 \u2013 \u0430\u0443\u043b \u0422\u0430\u0441\u0430\u0440\u044b\u043a", "lat": "42.23", "lon": "70.15", "region": "KZ-YUZ"}}, {"model": "DG.hydropost", "pk": 16395, "fields": {"nameEn": "r. Baldyberek \u2013 u kordona Goszapovednika", "name": "\u0440. \u0411\u043e\u043b\u0434\u044b\u0431\u0440\u0435\u043a \u2013 \u0443 \u043a\u043e\u0440\u0434\u043e\u043d\u0430 \u0413\u043e\u0441\u0437\u0430\u043f\u043e\u0432\u0435\u0434\u043d\u0438\u043a\u0430", "lat": "42.26", "lon": "70.43", "region": "KZ-YUZ"}}, {"model": "DG.hydropost", "pk": 16401, "fields": {"nameEn": "r. Bugun - aul Ekpendy", "name": "\u0440. \u0411\u0443\u0433\u0443\u043d\u044c \u2013 \u0430\u0443\u043b \u0415\u043a\u043f\u0435\u043d\u0434\u044b", "lat": "42.80", "lon": "69.20", "region": "KZ-YUZ"}}, {"model": "DG.hydropost", "pk": 16404, "fields": {"nameEn": "r. Kattabugun - aul Zharykbas", "name": "\u0440. \u041a\u0430\u0442\u0442\u0430\u0431\u0443\u0433\u0443\u043d\u044c \u2013 \u0430\u0443\u043b \u0416\u0430\u0440\u044b\u043a\u0431\u0430\u0441", "lat": "43.05", "lon": "69.86", "region": "KZ-YUZ"}}, {"model": "DG.hydropost", "pk": 16411, "fields": {"nameEn": "r. Shayan \u2013 v 3.3 km nizhe ustya r. Akbet", "name": "\u0440. \u0428\u0430\u044f\u043d \u2013 \u04323.3 \u043a\u043c \u043d\u0438\u0436\u0435 \u0443\u0441\u0442\u044c\u044f \u0440. \u0410\u043a\u0431\u0435\u0442", "lat": "43.16", "lon": "69.57", "region": "KZ-YUZ"}}, {"model": "DG.hydropost", "pk": 16414, "fields": {"nameEn": "r. Aristandy -  aul Algabas", "name": "\u0440. \u0410\u0440\u0438\u0441\u0442\u0430\u043d\u0434\u044b \u2013 \u0430\u0443\u043b \u0410\u043b\u0433\u0430\u0431\u0430\u0441", "lat": "43.20", "lon": "69.38", "region": "KZ-YUZ"}}, {"model": "DG.hydropost", "pk": 16437, "fields": {"nameEn": "r. Karashik \u2013 aul Khantagi", "name": "\u0440. \u041a\u0430\u0440\u0430\u0448\u0438\u043a \u2013 \u0430\u0443\u043b \u0425\u0430\u043d\u0442\u0430\u0433\u0438", "lat": "43.52", "lon": "68.57", "region": "KZ-YUZ"}}, {"model": "DG.hydropost", "pk": 16474, "fields": {"nameEn": "r. Ashilgan \u2013 aul Maydantal", "name": "\u0440. \u0410\u0448\u0438\u043b\u0433\u0430\u043d \u2013 \u0430\u0443\u043b \u041c\u0430\u0439\u0434\u0430\u043d\u0442\u0430\u043b", "lat": "43.68", "lon": "68.03", "region": "KZ-YUZ"}}, {"model": "DG.hydropost", "pk": 16497, "fields": {"nameEn": "r. Syrdarya \u2013 vyshe ust'ya r. Keles", "name": "\u0440. \u0421\u044b\u0440\u0434\u0430\u0440\u044c\u044f \u2013 \u0432\u044b\u0448\u0435 \u0443\u0441\u0442\u044c\u044f \u0440. \u041a\u0435\u043b\u0435\u0441", "lat": "41.00", "lon": "68.66", "region": "KZ-YUZ"}}, {"model": "DG.hydropost", "pk": 16499, "fields": {"nameEn": "r. Shubars - aul Shubar", "name": "\u0440.  \u0428\u0443\u0431\u0430\u0440\u0441\u0443 \u2013 \u0430\u0443\u043b \u0428\u0443\u0431\u0430\u0440", "lat": "42.59", "lon": "69.36", "region": "KZ-YUZ"}}, {"model": "DG.hydropost", "pk": 16557, "fields": {"nameEn": "r. Kokbulak \u2013 aul Pisteli", "name": "\u0440. \u041a\u043e\u043a\u0431\u0443\u043b\u0430\u043a \u2013 \u0430\u0443\u043b \u041f\u0438\u0441\u0442\u0435\u043b\u0438", "lat": "42.66", "lon": "70.21", "region": "KZ-YUZ"}}, {"model": "DG.hydropost", "pk": 16620, "fields": {"nameEn": "Kanal Dostyk - aul. Shugyla", "name": "\u041a\u0430\u043d\u0430\u043b \u0414\u043e\u0441\u0442\u044b\u043a \u2013 \u0430\u0443\u043b. \u0428\u0443\u0433\u044b\u043b\u0430", "lat": "40.64", "lon": "68.60", "region": "KZ-YUZ"}}, {"model": "DG.hydropost", "pk": 16659, "fields": {"nameEn": "r. Syrdarya \u2013 pgt. Tasbuget", "name": "\u0440. \u0421\u044b\u0440\u0434\u0430\u0440\u044c\u044f \u2013 \u043f\u0433\u0442. \u0422\u0430\u0441\u0431\u0443\u0433\u0435\u0442", "lat": "44.76", "lon": "65.53", "region": "KZ-KZY"}}, {"model": "DG.hydropost", "pk": 16676, "fields": {"nameEn": "r. Syrdarya \u2013 s. Karateren", "name": "\u0440. \u0421\u044b\u0440\u0434\u0430\u0440\u044c\u044f \u2013 \u0441. \u041a\u0430\u0440\u0430\u0442\u0435\u0440\u0435\u043d\u044c", "lat": "46.03", "lon": "61.05", "region": "KZ-KZY"}}, {"model": "DG.hydropost", "pk": 16910, "fields": {"nameEn": "Shardarinskoe vdhr. - g. Shardara", "name": "\u0428\u0430\u0440\u0434\u0430\u0440\u0438\u043d\u0441\u043a\u043e\u0435 \u0432\u0434\u0445\u0440. \u2013 \u0433. \u0428\u0430\u0440\u0434\u0430\u0440\u0430", "lat": "41.25", "lon": "67.97", "region": "KZ-YUZ"}}, {"model": "DG.hydropost", "pk": 19009, "fields": {"nameEn": "r. Malyy Uzen \u2013 s. Koshankol", "name": "\u0420. \u041c\u0430\u043b\u044b\u0439 \u0423\u0437\u0435\u043d\u044c \u2013 \u0441. \u041a\u043e\u0448\u0430\u043d\u043a\u043e\u043b\u044c", "lat": "49.91", "lon": "48.22", "region": "KZ-ZAP"}}, {"model": "DG.hydropost", "pk": 19010, "fields": {"nameEn": "r.Mal.Uzen\u2013s.Bostandyk", "name": "\u0420.\u041c\u0430\u043b.\u0423\u0437\u0435\u043d\u044c \u2013\u0441.\u0411\u043e\u0441\u0442\u0430\u043d\u0434\u044b\u043a", "lat": "49.63", "lon": "48.87", "region": "KZ-ZAP"}}, {"model": "DG.hydropost", "pk": 19012, "fields": {"nameEn": "r. Ural. protoka Zhayik - s. Erkinkala", "name": "\u0440. \u0423\u0440\u0430\u043b. \u043f\u0440\u043e\u0442\u043e\u043a\u0430 \u042f\u0438\u043a \u2013  \u0441.\u0415\u0440\u043a\u0438\u043d\u043a\u0430\u043b\u0430", "lat": "47.02", "lon": "51.82", "region": "KZ-ATY"}}, {"model": "DG.hydropost", "pk": 19021, "fields": {"nameEn": "r. Bol. Uzen - s. Kaiyndy", "name": "\u0420. \u0411\u043e\u043b. \u0423\u0437\u0435\u043d\u044c \u2013 \u0441. \u041a\u0430\u0439\u044b\u043d\u0434\u044b ", "lat": "50.08", "lon": "48.85", "region": "KZ-ZAP"}}, {"model": "DG.hydropost", "pk": 19022, "fields": {"nameEn": "r. Bol. Uzen -s. Zhalpaktal", "name": "\u0420. \u0411\u043e\u043b. \u0423\u0437\u0435\u043d\u044c \u2013 \u0441. \u0416\u0430\u043b\u043f\u0430\u043a\u0442\u0430\u043b", "lat": "49.66", "lon": "49.47", "region": "KZ-ZAP"}}, {"model": "DG.hydropost", "pk": 19033, "fields": {"nameEn": "R. Chizha 2-ya \u2013 s. Chizha-2", "name": "\u0420. \u0427\u0438\u0436\u0430 2-\u044f \u2013 \u0441. \u0427\u0438\u0436\u0430-2", "lat": "50.87", "lon": "49.65", "region": "KZ-ZAP"}}, {"model": "DG.hydropost", "pk": 19034, "fields": {"nameEn": "R. Chizha 1-ya \u2013 s. Chizha-1", "name": "\u0420. \u0427\u0438\u0436\u0430 1-\u044f \u2013 \u0441. \u0427\u0438\u0436\u0430-1", "lat": "50.94", "lon": "49.96", "region": "KZ-ZAP"}}, {"model": "DG.hydropost", "pk": 19071, "fields": {"nameEn": "R. Ural \u2013 g. Uralsk", "name": "\u0420. \u0423\u0440\u0430\u043b \u2013 \u0433. \u0423\u0440\u0430\u043b\u044c\u0441\u043a", "lat": "51.18", "lon": "51.38", "region": "KZ-ZAP"}}, {"model": "DG.hydropost", "pk": 19072, "fields": {"nameEn": "R. Ural \u2013 s. Kushum", "name": "\u0420. \u0423\u0440\u0430\u043b \u2013 \u0441. \u041a\u0443\u0448\u0443\u043c", "lat": "50.86", "lon": "51.14", "region": "KZ-ZAP"}}, {"model": "DG.hydropost", "pk": 19073, "fields": {"nameEn": "r. Ural \u2013 pos. Yanvartsevo", "name": "\u0420. \u0423\u0440\u0430\u043b \u2013  \u043f\u043e\u0441. \u042f\u043d\u0432\u0430\u0440\u0446\u0435\u0432\u043e", "lat": "51.44", "lon": "52.23", "region": "KZ-ZAP"}}, {"model": "DG.hydropost", "pk": 19075, "fields": {"nameEn": "r. Ural \u2013 s. Taypak", "name": "\u0420. \u0423\u0440\u0430\u043b \u2013  \u0441. \u0422\u0430\u0439\u043f\u0430\u043a", "lat": "49.02", "lon": "51.85", "region": "KZ-ZAP"}}, {"model": "DG.hydropost", "pk": 19083, "fields": {"nameEn": "kan. Kushum \u2013 s. Kushum", "name": "\u043a\u0430\u043d. \u041a\u0443\u0448\u0443\u043c \u2013 \u0441. \u041a\u0443\u0448\u0443\u043c", "lat": "50.87", "lon": "51.14", "region": "KZ-ZAP"}}, {"model": "DG.hydropost", "pk": 19130, "fields": {"nameEn": "r. Shiili - s. Kumsai", "name": "\u0420.\u0428\u0438\u0439\u043b\u0438-\u0441.\u041a\u0443\u043c\u0441\u0430\u0439", "lat": "49.48", "lon": "58.52", "region": "KZ-AKT"}}, {"model": "DG.hydropost", "pk": 19132, "fields": {"nameEn": "r. Or' - s. Bugetsai", "name": "\u0420.\u041e\u0440\u044c-\u0441.\u0411\u0443\u0433\u0435\u0442\u0441\u0430\u0439", "lat": "50.13", "lon": "59.09", "region": "KZ-AKT"}}, {"model": "DG.hydropost", "pk": 19180, "fields": {"nameEn": "r. Urti-Burtya - pos. Dmitrievka", "name": "\u0420.\u0423\u0440\u0442\u0430-\u0411\u0443\u0440\u0442\u044f-\u043f\u043e\u0441.\u0414\u043c\u0438\u0442\u0440\u0438\u0435\u0432\u043a\u0430", "lat": "50.87", "lon": "56.70", "region": "KZ-AKT"}}, {"model": "DG.hydropost", "pk": 19195, "fields": {"nameEn": "r.Ilek - g. Aktobe", "name": "\u0420.\u0418\u043b\u0435\u043a-\u0433.\u0410\u043a\u0442\u043e\u0431\u0435", "lat": "50.31", "lon": "57.23", "region": "KZ-AKT"}}, {"model": "DG.hydropost", "pk": 19196, "fields": {"nameEn": "r. Ilek - pos. Tselinnoe", "name": "\u0420.\u0418\u043b\u0435\u043a-\u043f\u043e\u0441.\u0426\u0435\u043b\u0438\u043d\u043d\u043e\u0435", "lat": "50.80", "lon": "56.26", "region": "KZ-AKT"}}, {"model": "DG.hydropost", "pk": 19198, "fields": {"nameEn": "R. Shagan \u2013 s. Chuvashinskoye", "name": "\u0420. \u0428\u0430\u0433\u0430\u043d \u2013 \u0441. \u0427\u0443\u0432\u0430\u0448\u0438\u043d\u0441\u043a\u043e\u0435", "lat": "51.43", "lon": "51.53", "region": "KZ-ZAP"}}, {"model": "DG.hydropost", "pk": 19201, "fields": {"nameEn": "r. Ilek - s. Chilik", "name": "\u0420. \u0418\u043b\u0435\u043a \u2013 \u0441. \u0427\u0438\u043b\u0438\u043a", "lat": "51.12", "lon": "54.07", "region": "KZ-ZAP"}}, {"model": "DG.hydropost", "pk": 19205, "fields": {"nameEn": "r. Karagala - s. Kargalinskoe", "name": "\u0420.\u041a\u0430\u0440\u0430\u0433\u0430\u043b\u0430-\u0441.\u041a\u0430\u0440\u0433\u0430\u043b\u0438\u043d\u0441\u043a\u043e\u0435", "lat": "50.32", "lon": "57.31", "region": "KZ-AKT"}}, {"model": "DG.hydropost", "pk": 19208, "fields": {"nameEn": "r. Kosistek - s. Kosistek", "name": "\u0440.\u041a\u043e\u0441\u0438\u0441\u0442\u0435\u043a-\u0441.\u041a\u043e\u0441\u0438\u0441\u0442\u0435\u043a", "lat": "50.73", "lon": "57.89", "region": "KZ-AKT"}}, {"model": "DG.hydropost", "pk": 19211, "fields": {"nameEn": "r. Aktasty - pos.Belgorskiy", "name": "\u0420.\u0410\u043a\u0442\u0430\u0441\u0442\u044b-\u043f\u043e\u0441.\u0411\u0435\u043b\u043e\u0433\u043e\u0440\u0441\u043a\u0438\u0439", "lat": "50.37", "lon": "57.65", "region": "KZ-AKT"}}, {"model": "DG.hydropost", "pk": 19218, "fields": {"nameEn": "r. Bolshaya Kobda - s. Kobda", "name": "\u0420.\u0411\u043e\u043b\u044c\u0448\u0430\u044f \u041a\u043e\u0431\u0434\u0430-\u0441.\u041a\u043e\u0431\u0434\u0430", "lat": "50.16", "lon": "55.69", "region": "KZ-AKT"}}, {"model": "DG.hydropost", "pk": 19220, "fields": {"nameEn": "r. Karahobda - pos. Alpasai", "name": "\u0420.\u041a\u0430\u0440\u0430\u0445\u043e\u0431\u0434\u0430-\u043f\u043e\u0441.\u0410\u043b\u044c\u043f\u0430\u0439\u0441\u0430\u0439", "lat": "50.23", "lon": "56.22", "region": "KZ-AKT"}}, {"model": "DG.hydropost", "pk": 19229, "fields": {"nameEn": "r. Utva - pos. Lubenka", "name": "\u0420. \u0423\u0442\u0432\u0430 \u2013 \u043f\u043e\u0441. \u041b\u0443\u0431\u0435\u043d\u043a\u0430", "lat": "50.45", "lon": "54.14", "region": "KZ-ZAP"}}, {"model": "DG.hydropost", "pk": 19231, "fields": {"nameEn": "R. Utva \u2013 s. Kentubek (s.Grigor'yevka)", "name": "\u0420. \u0423\u0442\u0432\u0430 \u2013 \u0441. \u041a\u0435\u043d\u0442\u0443\u0431\u0435\u043a (\u0441.\u0413\u0440\u0438\u0433\u043e\u0440\u044c\u0435\u0432\u043a\u0430)", "lat": "51.06", "lon": "52.95", "region": "KZ-ZAP"}}, {"model": "DG.hydropost", "pk": 19239, "fields": {"nameEn": "r. Bykovka \u2013 s. Chebotarevo", "name": "\u0420. \u0411\u044b\u043a\u043e\u0432\u043a\u0430 \u2013 \u0441. \u0427\u0435\u0431\u043e\u0442\u0430\u0440\u0435\u0432\u043e        ", "lat": "51.58", "lon": "52.07", "region": "KZ-ZAP"}}, {"model": "DG.hydropost", "pk": 19240, "fields": {"nameEn": "r. Derkul - pos.Taskala (Kamenka)", "name": "\u0420. \u0414\u0435\u0440\u043a\u0443\u043b \u2013 \u043f\u043e\u0441.\u0422\u0430\u0441\u043a\u0430\u043b\u0430 (\u043f. \u041a\u0430\u043c\u0435\u043d\u043a\u0430)", "lat": "51.11", "lon": "50.31", "region": "KZ-ZAP"}}, {"model": "DG.hydropost", "pk": 19243, "fields": {"nameEn": "R. Derkul \u2013 pos. Beles", "name": "\u0420. \u0414\u0435\u0440\u043a\u0443\u043b \u2013 \u043f\u043e\u0441. \u0411\u0435\u043b\u0435\u0441", "lat": "51.27", "lon": "51.07", "region": "KZ-ZAP"}}, {"model": "DG.hydropost", "pk": 19246, "fields": {"nameEn": "R. Kuperankaty \u2013 s.Algabas", "name": "\u0420. \u041a\u0443\u043f\u0435\u0440\u0430\u043d\u043a\u0430\u0442\u044b \u2013 \u0441.\u0410\u043b\u0433\u0430\u0431\u0430\u0441", "lat": "50.66", "lon": "52.12", "region": "KZ-ZAP"}}, {"model": "DG.hydropost", "pk": 19247, "fields": {"nameEn": "r. Olenty - s.Zhimpity (s.Zhambeyty)", "name": "\u0420. \u041e\u043b\u0435\u043d\u0442\u044b \u2013  \u0441.\u0416\u044b\u043c\u043f\u0438\u0442\u044b (\u0441.\u0416\u0430\u043c\u0431\u0435\u0439\u0442\u044b)", "lat": "50.27", "lon": "52.60", "region": "KZ-ZAP"}}, {"model": "DG.hydropost", "pk": 19249, "fields": {"nameEn": "r. Shiderty \u2013s. Araltobe", "name": "\u0420. \u0428\u0438\u0434\u0435\u0440\u0442\u044b \u2013\u0441.\u0410\u0440\u0430\u043b\u0442\u043e\u0431\u0435 ", "lat": "50.50", "lon": "52.65", "region": "KZ-ZAP"}}, {"model": "DG.hydropost", "pk": 19254, "fields": {"nameEn": "r. Kaldygayty - s. Zhigerlen", "name": "\u0420.\u041a\u0430\u043b\u0434\u044b\u0433\u0430\u0439\u0442\u044b \u2013 \u0441.\u0416\u0438\u0433\u0435\u0440\u043b\u0435\u043d", "lat": "49.87", "lon": "53.93", "region": "KZ-ZAP"}}, {"model": "DG.hydropost", "pk": 19261, "fields": {"nameEn": "r. Kigach - s. Shortanbay", "name": "\u0440. \u041a\u0438\u0433\u0430\u0447 \u2013 \u0441. \u0428\u043e\u0440\u0442\u0430\u043d\u0431\u0430\u0439", "lat": "46.61", "lon": "48.66", "region": "KZ-ATY"}}, {"model": "DG.hydropost", "pk": 19289, "fields": {"nameEn": "r. Emba - s. Zhagabulak", "name": "\u0420.\u042d\u043c\u0431\u0430-\u0441.\u0416\u0430\u0433\u0430\u0431\u0443\u043b\u0430\u043a", "lat": "48.55", "lon": "57.55", "region": "KZ-AKT"}}, {"model": "DG.hydropost", "pk": 19300, "fields": {"nameEn": "r. Emba - pos. Saga", "name": "\u0420.\u042d\u043c\u0431\u0430-\u043f\u043e\u0441.\u0421\u0430\u0433\u0430", "lat": "48.49", "lon": "57.43", "region": "KZ-AKT"}}, {"model": "DG.hydropost", "pk": 19301, "fields": {"nameEn": "r. Temir - s. Sagashili", "name": "\u0420.\u0422\u0435\u043c\u0438\u0440-\u0441.\u0421\u0430\u0433\u0430\u0448\u0438\u043b\u0438", "lat": "49.33", "lon": "57.07", "region": "KZ-AKT"}}, {"model": "DG.hydropost", "pk": 19302, "fields": {"nameEn": "r. Temir- post Leninskiy", "name": "\u0420.\u0422\u0435\u043c\u0438\u0440-\u043f\u043e\u0441\u0442 \u041b\u0435\u043d\u0438\u043d\u0441\u043a\u0438\u0439", "lat": "48.92", "lon": "57.23", "region": "KZ-AKT"}}, {"model": "DG.hydropost", "pk": 19303, "fields": {"nameEn": "r. Emba - p. Akkiztogay", "name": "\u0420. \u042d\u043c\u0431\u0430 \u2013 \u043f.\u0410\u043a\u043a\u0438\u0437\u0442\u043e\u0433\u0430\u0439", "lat": "47.10", "lon": "54.37", "region": "KZ-ATY"}}, {"model": "DG.hydropost", "pk": 19462, "fields": {"nameEn": "r. Bolshaya Kobda - s. Kogaly", "name": "\u0440.\u0411\u043e\u043b\u044c\u0448\u0430\u044f \u041a\u043e\u0431\u0434\u0430-\u0441.\u041a\u043e\u0433\u0430\u043b\u044b", "lat": "50.87", "lon": "54.79", "region": "KZ-AKT"}}, {"model": "DG.hydropost", "pk": 19463, "fields": {"nameEn": "r. Uil - s. Uil", "name": "\u0420.\u0423\u0438\u043b-\u0441.\u0423\u0438\u043b", "lat": "49.09", "lon": "54.67", "region": "KZ-AKT"}}, {"model": "DG.hydropost", "pk": 19801, "fields": {"nameEn": "r. Ural - pos. Mahambet", "name": "\u0420. \u0423\u0440\u0430\u043b \u2013 \u043f\u043e\u0441. \u041c\u0430\u0445\u0430\u043c\u0431\u0435\u0442", "lat": "47.68", "lon": "51.60", "region": "KZ-ATY"}}, {"model": "DG.hydropost", "pk": 19802, "fields": {"nameEn": "r. Ural - g. Atyrau", "name": "\u0420. \u0423\u0440\u0430\u043b \u2013 \u0433. \u0410\u0442\u044b\u0440\u0430\u0443 ", "lat": "47.09", "lon": "51.88", "region": "KZ-ATY"}}, {"model": "DG.hydropost", "pk": 19806, "fields": {"nameEn": "r. Ural - s. Zhanatalap", "name": "\u0440. \u0423\u0440\u0430\u043b \u2013 \u0441. \u0416\u0430\u043d\u0430\u0442\u0430\u043b\u0430\u043f", "lat": "47.01", "lon": "51.82", "region": "KZ-ATY"}}, {"model": "DG.hydropost", "pk": 19808, "fields": {"nameEn": "r. Ural - pos. Inderbor", "name": "\u0440. \u0423\u0440\u0430\u043b \u2013 \u043f\u043e\u0441. \u0418\u043d\u0434\u0435\u0440\u0431\u043e\u0440", "lat": "48.56", "lon": "51.74", "region": "KZ-ATY"}}, {"model": "DG.hydropost", "pk": 77818, "fields": {"nameEn": "r. Volga. ruk. Ahbuta. pr.Kigach - s. Kotyaevka", "name": "\u0420. \u0412\u043e\u043b\u0433\u0430. \u0440\u0443\u043a.\u0410\u0445\u0431\u0443\u0442\u0430. \u043f\u0440.\u041a\u0438\u0433\u0430\u0447 \u2013 \u0441. \u041a\u043e\u0442\u044f\u0435\u0432\u043a\u0430", "lat": "46.55", "lon": "48.76", "region": "KZ-ATY"}}, {"model": "DG.hydropost", "pk": 77819, "fields": {"nameEn": "r. Volga. prot. Sharonovka - s. Ganyushkino", "name": "\u0420. \u0412\u043e\u043b\u0433\u0430. \u043f\u0440\u043e\u0442. \u0428\u0430\u0440\u043e\u043d\u043e\u0432\u043a\u0430 \u2013 \u0441. \u0413\u0430\u043d\u044e\u0448\u043a\u0438\u043d\u043e", "lat": "46.60", "lon": "49.50", "region": "KZ-ATY"}}, {"model": "DG.hydropost", "pk": 96009, "fields": {"nameEn": "Aralskoye more. bereg Malogo more \u2013 p. Tastubek", "name": "\u0410\u0440\u0430\u043b\u044c\u0441\u043a\u043e\u0435 \u043c\u043e\u0440\u0435. \u0431\u0435\u0440\u0435\u0433 \u041c\u0430\u043b\u043e\u0433\u043e \u043c\u043e\u0440\u0435 \u2013 \u043f. \u0422\u0430\u0441\u0442\u0443\u0431\u0435\u043a", "lat": "46.54", "lon": "60.81", "region": "KZ-KZY"}}, {"model": "DG.hydropost", "pk": 96010, "fields": {"nameEn": "Maloye Aralskoye more \u2013 verkhniy byef Kokaralskoy plotiny", "name": "\u041c\u0430\u043b\u043e\u0435 \u0410\u0440\u0430\u043b\u044c\u0441\u043a\u043e\u0435 \u043c\u043e\u0440\u0435 \u2013 \u0432\u0435\u0440\u0445 \u0431\u044c\u0435\u0444 \u041a\u043e\u043a\u0430\u0440\u0430\u043b\u044c\u0441\u043a\u043e\u0439 \u043f\u043b\u0430\u0442\u0438\u043d\u044b", "lat": "46.11", "lon": "60.77", "region": "KZ-KZY"}}, {"model": "DG.hydropost", "pk": 97046, "fields": {"nameEn": "Kaspiyskoe more - Igolkinskaya banka", "name": "\u041a\u0430\u0441\u043f\u0438\u0439\u0441\u043a\u043e\u0435 \u043c\u043e\u0440\u0435 \u2013 \u0418\u0433\u043e\u043b\u043a\u0438\u043d\u0441\u043a\u0430\u044f \u0431\u0430\u043d\u043a\u0430  ", "lat": "46.37", "lon": "49.19", "region": "KZ-ATY"}}, {"model": "DG.hydropost", "pk": 97047, "fields": {"nameEn": "Kaspiyskoe more - p. Zhambay", "name": "\u041a\u0430\u0441\u043f\u0438\u0439\u0441\u043a\u043e\u0435 \u043c\u043e\u0440\u0435 \u2013 \u043f. \u0416\u0430\u043c\u0431\u0430\u0439", "lat": "47.93", "lon": "50.78", "region": "KZ-ATY"}}, {"model": "DG.hydropost", "pk": 97048, "fields": {"nameEn": "Kaspiyskoe more - o. Peshnoy", "name": "\u041a\u0430\u0441\u043f\u0438\u0439\u0441\u043a\u043e\u0435 \u043c\u043e\u0440\u0435 \u2013 \u043e. \u041f\u0435\u0448\u043d\u043e\u0439  ", "lat": "46.92", "lon": "51.69", "region": "KZ-ATY"}}, {"model": "DG.hydropost", "pk": 97057, "fields": {"nameEn": "Kaspiyskoye more \u2013 p.Kalamkas", "name": "\u041a\u0430\u0441\u043f\u0438\u0439\u0441\u043a\u043e\u0435 \u043c\u043e\u0440\u0435 \u2013 \u043f.\u041a\u0430\u043b\u0430\u043c\u043a\u0430\u0441", "lat": "45.20", "lon": "51.25", "region": "KZ-MAN"}}, {"model": "DG.hydropost", "pk": 97059, "fields": {"nameEn": "Kaspiyskoye more \u2013 s. Kugaly", "name": "\u041a\u0430\u0441\u043f\u0438\u0439\u0441\u043a\u043e\u0435 \u043c\u043e\u0440\u0435 \u2013 \u0441. \u041a\u0443\u0433\u0430\u043b\u044b", "lat": "44.98", "lon": "50.01", "region": "KZ-MAN"}}, {"model": "DG.hydropost", "pk": 97060, "fields": {"nameEn": "Kaspiyskoye more \u2013 Fort Shevchenko", "name": "\u041a\u0430\u0441\u043f\u0438\u0439\u0441\u043a\u043e\u0435 \u043c\u043e\u0440\u0435 \u2013 \u0424\u043e\u0440\u0442 \u0428\u0435\u0432\u0447\u0435\u043d\u043a\u043e", "lat": "44.55", "lon": "50.25", "region": "KZ-MAN"}}, {"model": "DG.hydropost", "pk": 97061, "fields": {"nameEn": "Kaspiyskoye more \u2013 g.Aktau", "name": "\u041a\u0430\u0441\u043f\u0438\u0439\u0441\u043a\u043e\u0435 \u043c\u043e\u0440\u0435 \u2013 \u0433.\u0410\u043a\u0442\u0430\u0443", "lat": "43.60", "lon": "51.22", "region": "KZ-MAN"}}, {"model": "DG.hydropost", "pk": 97062, "fields": {"nameEn": "Kaspiyskoye more \u2013 mys Peschanyy", "name": "\u041a\u0430\u0441\u043f\u0438\u0439\u0441\u043a\u043e\u0435 \u043c\u043e\u0440\u0435 \u2013 \u043c\u044b\u0441 \u041f\u0435\u0441\u0447\u0430\u043d\u044b\u0439", "lat": "43.19", "lon": "51.27", "region": "KZ-MAN"}}, {"model": "DG.hydropost", "pk": 97063, "fields": {"nameEn": "Kaspiyskoye more \u2013 p.Fetisovo", "name": "\u041a\u0430\u0441\u043f\u0438\u0439\u0441\u043a\u043e\u0435 \u043c\u043e\u0440\u0435 \u2013 \u043f.\u0424\u0435\u0442\u0438\u0441\u043e\u0432\u043e", "lat": "42.79", "lon": "52.62", "region": "KZ-MAN"}}, {"model": "DG.hydropost", "pk": 97064, "fields": {"nameEn": "Kaspiyskoye more \u2013 s.Saura", "name": "\u041a\u0430\u0441\u043f\u0438\u0439\u0441\u043a\u043e\u0435 \u043c\u043e\u0440\u0435 \u2013 \u0441.\u0421\u0430\u0443\u0440\u0430 ", "lat": "44.22", "lon": "50.80", "region": "KZ-MAN"}}, {"model": "DG.hydropost", "pk": 97090, "fields": {"nameEn": "Kaspiyskoye more \u2013 s.Kuryk", "name": "\u041a\u0430\u0441\u043f\u0438\u0439\u0441\u043a\u043e\u0435 \u043c\u043e\u0440\u0435 \u2013 \u0441.\u041a\u0443\u0440\u044b\u043a", "lat": "43.18", "lon": "51.66", "region": "KZ-MAN"}}, {"model": "DG.hydropost", "pk": 2300336, "fields": {"nameEn": "vdkhr.Petropavlovskoye (r.Yesil )-g.Petropavlovsk", "name": "\u0432\u0434\u0445\u0440.\u041f\u0435\u0442\u0440\u043e\u043f\u0430\u0432\u043b\u043e\u0432\u0441\u043a\u043e\u0435 (\u0440.\u0415\u0441\u0438\u043b\u044c )-\u0433.\u041f\u0435\u0442\u0440\u043e\u043f\u0430\u0432\u043b\u043e\u0432\u0441\u043a", "lat": "54.91", "lon": "69.13", "region": "KZ-SEV"}}, {"model": "DG.hydropost", "pk": 2300407, "fields": {"nameEn": "Astaninskoe vdhr. - s. Arnasai ", "name": "\u0410\u0441\u0442\u0430\u043d\u0438\u043d\u0441\u043a\u043e\u0435 \u0432\u0434\u0445\u0440. - \u0441. \u0410\u0440\u043d\u0430\u0441\u0430\u0439", "lat": "50.99", "lon": "72.12", "region": "KZ-AKM"}}, {"model": "DG.hydropost", "pk": 2300616, "fields": {"nameEn": "oz. Shortan - g. Shuchinsk", "name": "\u041e\u0437. \u0428\u043e\u0440\u0442\u0430\u043d \u2013 \u0433. \u0429\u0443\u0447\u0438\u043d\u0441\u043a", "lat": "53.01", "lon": "70.19", "region": "KZ-AKM"}}, {"model": "DG.hydropost", "pk": 2300624, "fields": {"nameEn": "Oz. Burabai - s.Borovoe", "name": "\u041e\u0437. \u0411\u0443\u0440\u0430\u0431\u0430\u0439 \u2013 \u0441. \u0411\u043e\u0440\u043e\u0432\u043e\u0435  ", "lat": "53.08", "lon": "70.30", "region": "KZ-AKM"}}, {"model": "DG.hydropost", "pk": 2300632, "fields": {"nameEn": "oz. Zerendy - s. Zerendy", "name": "\u041e\u0437. \u0417\u0435\u0440\u0435\u043d\u0434\u044b \u2013 \u0441. \u0417\u0435\u0440\u0435\u043d\u0434\u044b ", "lat": "52.92", "lon": "69.14", "region": "KZ-AKM"}}, {"model": "DG.hydropost", "pk": 2300640, "fields": {"nameEn": "oz. Ulken Shabakty - s.Borovoe", "name": "\u041e\u0437. \u0423\u043b\u044c\u043a\u0435\u043d \u0428\u0430\u0431\u0430\u043a\u0442\u044b \u2013 \u0441. \u0411\u043e\u0440\u043e\u0432\u043e\u0435", "lat": "53.13", "lon": "70.28", "region": "KZ-AKM"}}, {"model": "DG.hydropost", "pk": 2300711, "fields": {"nameEn": "vdhr. Buktyrma - p. Tugyl", "name": "\u0412\u0434\u0445\u0440. \u0411\u0443\u043a\u0442\u044b\u0440\u043c\u0430 \u2013 \u043f. \u0422\u0443\u0433\u044b\u043b", "lat": "47.74", "lon": "84.20", "region": "KZ-VOS"}}, {"model": "DG.hydropost", "pk": 2300738, "fields": {"nameEn": "vdhr. Buktyrma - s. Aksuat", "name": "\u0412\u0434\u0445\u0440. \u0411\u0443\u043a\u0442\u044b\u0440\u043c\u0430\u2013 \u0441. \u0410\u043a\u0441\u0443\u0430\u0442", "lat": "48.22", "lon": "83.69", "region": "KZ-VOS"}}, {"model": "DG.hydropost", "pk": 2300746, "fields": {"nameEn": "vdhr. Buktyrma - p.Kuigan", "name": "\u0412\u0434\u0445\u0440. \u0411\u0443\u043a\u0442\u044b\u0440\u043c\u0430 \u2013 \u043f. \u041a\u0443\u0439\u0433\u0430\u043d", "lat": "48.68", "lon": "83.49", "region": "KZ-VOS"}}, {"model": "DG.hydropost", "pk": 2300762, "fields": {"nameEn": "vdhr. Buktyrma - pos. Hairuzovka", "name": "\u0412\u0434\u0445\u0440. \u0411\u0443\u043a\u0442\u044b\u0440\u043c\u0430\u2013 \u043f\u043e\u0441. \u0425\u0430\u0439\u0440\u0443\u0437\u043e\u0432\u043a\u0430", "lat": "49.20", "lon": "84.34", "region": "KZ-VOS"}}, {"model": "DG.hydropost", "pk": 2300770, "fields": {"nameEn": "vdhr. Buktyrma - s. Zavodinka", "name": "\u0412\u0434\u0445\u0440. \u0411\u0443\u043a\u0442\u044b\u0440\u043c\u0430 \u2013 \u0441. \u0417\u0430\u0432\u043e\u0434\u0438\u043d\u043a\u0430", "lat": "49.67", "lon": "83.83", "region": "KZ-VOS"}}, {"model": "DG.hydropost", "pk": 2300789, "fields": {"nameEn": "vdhr. Buktyrma - s. Seleznevka", "name": "\u0412\u0434\u0445\u0440. \u0411\u0443\u043a\u0442\u044b\u0440\u043c\u0430 \u2013 \u0441. \u0421\u0435\u043b\u0435\u0437\u043d\u0435\u0432\u043a\u0430", "lat": "49.61", "lon": "83.50", "region": "KZ-VOS"}}, {"model": "DG.hydrologist", "pk": 1, "fields": {"user": 5, "region": "KZ-AKM"}}, {"model": "DG.hydrologist", "pk": 2, "fields": {"user": 6, "region": "KZ-ZHA"}}]